"Pro.ID","Pro.name","address.ns","zip","city","state","latitude","longitude","WorkingRange","NComplaints","StoreID","WorkYears"
1,"AQPVN CO.","1321 JHBWLO ST.","30341","Atlanta","GA",33.888102,-84.29321,33,5,2,14
2,"GYZPL CO.","4374 ZCGGDP ST.","30363","Atlanta","GA",33.844371,-84.47405,39,4,3,17
3,"NTXCU CO.","2935 EOMMLP ST.","30327","Atlanta","GA",33.86427,-84.41972,40,3,3,11
4,"OQRVR CO.","7130 FBFNST ST.","30365","Atlanta","GA",33.844371,-84.47405,8,4,1,17
5,"ZBBTI CO.","9641 RKFTEG ST.","30380","Atlanta","GA",33.844371,-84.47405,19,5,2,6
6,"AEXED CO.","8304 HPFDBR ST.","30334","Atlanta","GA",33.702657,-84.439127,35,3,1,18
7,"WENZO CO.","8342 XTEBOI ST.","30388","Atlanta","GA",33.844371,-84.47405,19,5,2,25
8,"DKWDN CO.","8103 SGLZAD ST.","31139","Atlanta","GA",33.844371,-84.47405,43,4,3,9
9,"ZONLE CO.","3593 GVUBEM ST.","30356","Atlanta","GA",33.891251,-84.07456,23,2,2,11
10,"VRRMM CO.","5615 VFTNKU ST.","30318","Atlanta","GA",33.786805,-84.437,35,2,3,17
11,"BXLBX CO.","2908 VXUALO ST.","30325","Atlanta","GA",33.844371,-84.47405,17,3,2,5
12,"TBMOH CO.","5585 SCTMWY ST.","30354","Atlanta","GA",33.658834,-84.39682,48,3,3,15
13,"RUQAF CO.","446 QIHLED ST.","30304","Atlanta","GA",33.848196,-84.429296,26,1,2,13
14,"KIEBA CO.","1645 FRDBLA ST.","30345","Atlanta","GA",33.851736,-84.28412,42,4,3,10
15,"JHGNM CO.","2377 CJBVUL ST.","30327","Atlanta","GA",33.86427,-84.41972,45,4,3,15
16,"FJSBQ CO.","3041 RTEFEG ST.","31106","Atlanta","GA",33.844371,-84.47405,9,4,1,10
17,"ABISN CO.","9466 TUOPDS ST.","31156","Atlanta","GA",33.844371,-84.47405,16,0,2,22
18,"JMEBD CO.","2603 LFXHBO ST.","30349","Atlanta","GA",33.61541,-84.49033,14,3,1,19
19,"BQAMS CO.","7118 HXPUTN ST.","30358","Atlanta","GA",33.998151,-84.34112,30,2,2,28
20,"NTVWA CO.","529 XDYLNY ST.","31141","Atlanta","GA",33.891251,-84.07456,35,1,2,13
21,"OQMHN CO.","2535 RIXLKE ST.","30331","Atlanta","GA",33.715558,-84.52728,48,4,3,4
22,"OWQFW CO.","9118 MFPUMT ST.","30396","Atlanta","GA",33.844371,-84.47405,16,2,3,25
23,"ERWWI CO.","494 HETOEG ST.","30381","Atlanta","GA",33.844371,-84.47405,50,1,1,11
24,"PWZIL CO.","8786 RQFXGQ ST.","30357","Atlanta","GA",33.844371,-84.47405,34,1,1,17
25,"RTKYC CO.","5992 LSMYGK ST.","30302","Atlanta","GA",33.844371,-84.47405,43,1,1,19
26,"VURXO CO.","9659 OJIZKS ST.","30303","Atlanta","GA",33.752856,-84.39013,27,3,2,2
27,"GXAUL CO.","1328 QWXZRH ST.","30349","Atlanta","GA",33.61541,-84.49033,34,3,1,12
28,"JBBXF CO.","2705 ECWGUB ST.","30318","Atlanta","GA",33.786805,-84.437,39,2,1,8
29,"OFXAI CO.","1154 EZWGNJ ST.","31136","Atlanta","GA",33.72,-84.58,30,1,3,15
30,"QGFNY CO.","3346 CYHYUJ ST.","30398","Atlanta","GA",33.844371,-84.47405,15,5,2,10
31,"YEWRB CO.","9729 EZFSJA ST.","30392","Atlanta","GA",33.844371,-84.47405,45,0,1,28
32,"MEOER CO.","5789 AGSBLB ST.","30345","Atlanta","GA",33.851736,-84.28412,20,3,1,10
33,"RQHTP CO.","569 HOZDPM ST.","30310","Atlanta","GA",33.727807,-84.41983,42,1,3,5
34,"GZLYO CO.","67 IPTGJK ST.","31199","Atlanta","GA",33.844371,-84.47405,47,3,3,16
35,"CAHPO CO.","1042 VNQTFT ST.","31106","Atlanta","GA",33.844371,-84.47405,40,4,1,13
36,"JXCKI CO.","2317 CRJVQX ST.","30328","Atlanta","GA",33.931746,-84.37817,16,2,3,21
37,"RKIEO CO.","6854 CCOYWM ST.","30330","Atlanta","GA",33.707107,-84.432127,47,1,2,19
38,"RGKLM CO.","4671 WXHDDX ST.","30360","Atlanta","GA",33.934536,-84.27215,36,5,1,15
39,"GNTXF CO.","5776 FMYYVU ST.","30356","Atlanta","GA",33.891251,-84.07456,34,4,2,30
40,"EQFGQ CO.","6678 OFODDV ST.","30377","Atlanta","GA",33.844371,-84.47405,44,0,2,4
41,"ONNON CO.","2253 HMVSIN ST.","30359","Atlanta","GA",33.891251,-84.07456,29,1,3,2
42,"ZTUER CO.","178 GHBFCR ST.","30389","Atlanta","GA",33.844371,-84.47405,47,4,1,16
43,"DRIKS CO.","532 LPVCVF ST.","30316","Atlanta","GA",33.729506,-84.34087,15,1,2,13
44,"TVRJY CO.","6332 IBOBNC ST.","30347","Atlanta","GA",33.844371,-84.47405,22,6,2,15
45,"TWCCV CO.","4221 VPGHPK ST.","30374","Atlanta","GA",33.844371,-84.47405,14,4,2,16
46,"VJBEW CO.","8766 WGXVRL ST.","30390","Atlanta","GA",33.844371,-84.47405,36,2,3,3
47,"PEWLW CO.","4636 FTWHVZ ST.","31131","Atlanta","GA",33.844371,-84.47405,19,4,3,23
48,"SQJRP CO.","9539 HMIKMM ST.","39901","Atlanta","GA",33.891251,-84.07456,45,2,1,16
49,"MHRBX CO.","541 YPNZPU ST.","31192","Atlanta","GA",33.844371,-84.47405,9,7,2,13
50,"ENGUS CO.","6024 KKRZMR ST.","30336","Atlanta","GA",33.744007,-84.56032,31,5,3,26
51,"VIGNZ CO.","4970 MZWRBG ST.","30371","Atlanta","GA",33.844371,-84.47405,46,2,3,9
52,"PKONZ CO.","5141 EMLHKJ ST.","30374","Atlanta","GA",33.844371,-84.47405,11,4,3,29
53,"NBUPU CO.","7438 UQMBLV ST.","30305","Atlanta","GA",33.830054,-84.38472,43,4,2,26
54,"NUKLE CO.","3196 HMADDK ST.","30366","Atlanta","GA",33.891251,-84.07456,10,1,3,10
55,"NMOUD CO.","8064 AEMYKN ST.","30378","Atlanta","GA",33.844371,-84.47405,9,5,1,18
56,"FYKMF CO.","5248 KMXIWP ST.","30317","Atlanta","GA",33.750005,-84.31854,41,2,1,12
57,"HGHAH CO.","6520 XELKVE ST.","30364","Atlanta","GA",33.844371,-84.47405,11,4,1,19
58,"ODIKQ CO.","7921 DVRDBL ST.","30368","Atlanta","GA",33.844371,-84.47405,21,4,1,17
59,"QGGPU CO.","3515 GIKZMS ST.","31145","Atlanta","GA",33.891251,-84.07456,29,4,2,20
60,"GFCWD CO.","8758 RQZJJQ ST.","31197","Atlanta","GA",33.844371,-84.47405,14,1,3,9
61,"HCIBG CO.","7623 KIFXST ST.","30321","Atlanta","GA",33.844371,-84.47405,28,6,2,19
62,"OTOOM CO.","2556 NMEHQR ST.","31192","Atlanta","GA",33.844371,-84.47405,45,3,3,20
63,"VLZWG CO.","7865 SKCSUJ ST.","30343","Atlanta","GA",33.844371,-84.47405,7,5,1,25
64,"SFTEF CO.","8916 DNCSEE ST.","30365","Atlanta","GA",33.844371,-84.47405,43,4,3,28
65,"TNIWV CO.","2480 ALGUKZ ST.","30333","Atlanta","GA",33.891251,-84.07456,48,3,1,18
66,"LERHY CO.","1465 RWLDVV ST.","31192","Atlanta","GA",33.844371,-84.47405,40,1,1,2
67,"FHBVS CO.","496 SEGVJF ST.","30378","Atlanta","GA",33.844371,-84.47405,6,2,2,9
68,"VORHO CO.","3494 XXCIGD ST.","30303","Atlanta","GA",33.752856,-84.39013,37,4,3,22
69,"TMMNA CO.","8036 FMIIOI ST.","30350","Atlanta","GA",33.97285,-84.32775,26,2,2,22
70,"BVGYX CO.","1360 QPAIKY ST.","30325","Atlanta","GA",33.844371,-84.47405,38,1,2,0
71,"RMMEI CO.","9462 FQZOPQ ST.","30360","Atlanta","GA",33.934536,-84.27215,16,5,3,8
72,"BWFDB CO.","4526 FQDYPN ST.","30336","Atlanta","GA",33.744007,-84.56032,10,2,1,13
73,"SSPVI CO.","6501 TIPPLV ST.","30366","Atlanta","GA",33.891251,-84.07456,25,3,1,4
74,"RCEYS CO.","9106 ZMXUPS ST.","30324","Atlanta","GA",33.818304,-84.35779,6,2,2,14
75,"WTBTJ CO.","7544 NXUZAM ST.","30315","Atlanta","GA",33.709595,-84.38365,12,2,3,12
76,"NJUFZ CO.","5963 YHZZXX ST.","30355","Atlanta","GA",33.844371,-84.47405,12,7,3,3
77,"JAUVE CO.","6159 NPNJVU ST.","30385","Atlanta","GA",33.844371,-84.47405,44,1,2,13
78,"MVMZP CO.","6607 DSRVSC ST.","30348","Atlanta","GA",33.844371,-84.47405,36,2,1,18
79,"BWVYF CO.","9295 GTBVFW ST.","30350","Atlanta","GA",33.97285,-84.32775,12,1,2,12
80,"DVMKP CO.","5262 HSQVPM ST.","30347","Atlanta","GA",33.844371,-84.47405,22,3,3,17
81,"MJUFW CO.","8155 EVTYZQ ST.","30394","Atlanta","GA",33.844371,-84.47405,29,2,3,25
82,"ESMUY CO.","2842 ONODXO ST.","31199","Atlanta","GA",33.844371,-84.47405,38,1,1,5
83,"OVMDH CO.","5687 CCJHIX ST.","31146","Atlanta","GA",33.891251,-84.07456,35,5,2,24
84,"DZTMK CO.","4777 JRCFCC ST.","30316","Atlanta","GA",33.729506,-84.34087,7,3,3,27
85,"LKWYN CO.","4266 GIEBIL ST.","30371","Atlanta","GA",33.844371,-84.47405,16,5,1,14
86,"AXBQN CO.","3167 JLIMDL ST.","30365","Atlanta","GA",33.844371,-84.47405,13,1,2,26
87,"YTXNS CO.","8222 FJSGWP ST.","30358","Atlanta","GA",33.998151,-84.34112,30,4,3,11
88,"MZDHF CO.","7573 QLAJVU ST.","30376","Atlanta","GA",33.844371,-84.47405,20,4,1,22
89,"AFDJH CO.","7459 VZBHMA ST.","30389","Atlanta","GA",33.844371,-84.47405,38,2,1,8
90,"RFYJG CO.","7199 HFEEQK ST.","30381","Atlanta","GA",33.844371,-84.47405,42,6,1,21
91,"FDBMN CO.","297 TFEVHH ST.","31145","Atlanta","GA",33.891251,-84.07456,34,6,1,10
92,"UITFB CO.","5774 KWYJHC ST.","30302","Atlanta","GA",33.844371,-84.47405,5,3,3,2
93,"FEOQF CO.","9137 JHORHM ST.","31198","Atlanta","GA",33.844371,-84.47405,42,2,2,15
94,"URECO CO.","7994 OQVRUK ST.","30361","Atlanta","GA",33.844371,-84.47405,45,2,1,30
95,"YIRIE CO.","4509 FUNMTS ST.","30307","Atlanta","GA",33.768205,-84.33786,14,4,3,9
96,"PZPCT CO.","1727 BDYPAK ST.","30362","Atlanta","GA",33.891251,-84.07456,34,3,1,15
97,"CPTEP CO.","9384 COOYHE ST.","30308","Atlanta","GA",33.771755,-84.38065,5,3,2,5
98,"BGSLK CO.","9315 ZVFZXI ST.","30336","Atlanta","GA",33.744007,-84.56032,31,5,2,27
99,"WVKHY CO.","5338 EEIEDG ST.","30329","Atlanta","GA",33.827554,-84.32355,22,2,2,7
100,"EDKCW CO.","5129 JLBIPT ST.","30320","Atlanta","GA",33.656824,-84.423648,18,3,2,1
101,"DSTJJ CO.","7744 VKHUHS ST.","31198","Atlanta","GA",33.844371,-84.47405,9,3,2,27
102,"XRXTZ CO.","139 HGXAJE ST.","30390","Atlanta","GA",33.844371,-84.47405,50,5,1,0
103,"FNLAH CO.","1746 GQOTJL ST.","31119","Atlanta","GA",33.891251,-84.07456,10,4,1,1
104,"COGBX CO.","2437 VLIDIZ ST.","30323","Atlanta","GA",33.844371,-84.47405,41,0,2,9
105,"RFJDC CO.","8210 FYHGEY ST.","30306","Atlanta","GA",33.786755,-84.35149,19,4,3,3
106,"YENQJ CO.","6652 XXOZBN ST.","30399","Atlanta","GA",33.844371,-84.47405,15,5,3,3
107,"XMWCM CO.","1110 NNUROH ST.","30345","Atlanta","GA",33.851736,-84.28412,5,2,2,1
108,"DCQPM CO.","8662 UIGXWC ST.","30359","Atlanta","GA",33.891251,-84.07456,15,2,2,4
109,"PZKYR CO.","8602 YYQTJA ST.","30371","Atlanta","GA",33.844371,-84.47405,29,2,2,1
110,"VNDMD CO.","4367 INVBEG ST.","30349","Atlanta","GA",33.61541,-84.49033,30,5,1,12
111,"YILUL CO.","1257 HORNIU ST.","31106","Atlanta","GA",33.844371,-84.47405,27,2,1,4
112,"EGVTD CO.","9234 LOGGDU ST.","30396","Atlanta","GA",33.844371,-84.47405,11,1,3,9
113,"MFOAC CO.","2790 YQILTX ST.","30367","Atlanta","GA",33.789255,-84.387276,11,6,2,5
114,"MQZIA CO.","4796 DQDPPJ ST.","30301","Atlanta","GA",33.844371,-84.47405,33,2,2,23
115,"VWKAO CO.","6280 ROTEDN ST.","30364","Atlanta","GA",33.844371,-84.47405,39,1,1,7
116,"ZLZJA CO.","3632 CXUCSV ST.","30318","Atlanta","GA",33.786805,-84.437,10,4,2,12
117,"GMKDJ CO.","4750 FCFKQR ST.","30354","Atlanta","GA",33.658834,-84.39682,39,4,1,17
118,"CDTWW CO.","3943 WTKWWP ST.","30365","Atlanta","GA",33.844371,-84.47405,7,3,1,21
119,"YLXQY CO.","2732 EACSRY ST.","30374","Atlanta","GA",33.844371,-84.47405,31,6,3,16
120,"YRENE CO.","8741 FXAMIZ ST.","30339","Atlanta","GA",33.87507,-84.46615,27,5,3,29
121,"BJJJK CO.","8800 RXAXAH ST.","30318","Atlanta","GA",33.786805,-84.437,10,4,1,12
122,"FUKNS CO.","4515 ZVNKYR ST.","30386","Atlanta","GA",33.844371,-84.47405,7,3,3,28
123,"HNKIE CO.","4349 FQTXWY ST.","31120","Atlanta","GA",33.74,-84.38,18,8,3,6
124,"PJHCJ CO.","3692 UIXMHL ST.","30388","Atlanta","GA",33.844371,-84.47405,8,2,3,18
125,"MXSKU CO.","5741 NDGEZE ST.","30302","Atlanta","GA",33.844371,-84.47405,38,5,1,6
126,"SSLEU CO.","2973 VNOBMP ST.","30343","Atlanta","GA",33.844371,-84.47405,10,3,2,27
127,"CZQWT CO.","414 UVOFCB ST.","31126","Atlanta","GA",33.844371,-84.47405,45,2,2,16
128,"HPBSJ CO.","2571 BGDUFU ST.","31191","Atlanta","GA",33.844371,-84.47405,5,4,1,14
129,"JRZHX CO.","1593 SDKAWE ST.","30387","Atlanta","GA",33.844371,-84.47405,12,4,2,22
130,"OMXUQ CO.","9292 KMZVMK ST.","30324","Atlanta","GA",33.818304,-84.35779,41,4,1,30
131,"LDESZ CO.","1531 NLUXTM ST.","30323","Atlanta","GA",33.844371,-84.47405,50,4,1,19
132,"TJVJZ CO.","8114 GDKBUH ST.","30334","Atlanta","GA",33.702657,-84.439127,28,1,2,2
133,"GPKMB CO.","5808 JLBNXH ST.","31106","Atlanta","GA",33.844371,-84.47405,23,1,1,1
134,"HZYYG CO.","9599 QQZFMM ST.","30385","Atlanta","GA",33.844371,-84.47405,39,6,1,4
135,"PUKUH CO.","1507 KKPAVN ST.","30319","Atlanta","GA",33.872053,-84.33611,7,3,1,22
136,"YLPHN CO.","1802 LKEBPL ST.","31141","Atlanta","GA",33.891251,-84.07456,21,3,3,1
137,"UXVST CO.","3717 IQFQCQ ST.","30333","Atlanta","GA",33.891251,-84.07456,43,5,3,16
138,"PXAMQ CO.","8932 SXQRYI ST.","30351","Atlanta","GA",33.844371,-84.47405,7,4,2,13
139,"NLSVP CO.","2583 ZRCYVJ ST.","31139","Atlanta","GA",33.844371,-84.47405,27,4,1,14
140,"DDSWX CO.","298 JNSMIK ST.","30311","Atlanta","GA",33.724907,-84.47131,31,2,3,23
141,"ZBRQR CO.","815 CXKYXR ST.","30368","Atlanta","GA",33.844371,-84.47405,9,4,2,9
142,"BSUFC CO.","2850 JOFXZO ST.","30364","Atlanta","GA",33.844371,-84.47405,30,5,3,24
143,"QEMLI CO.","1700 YJSSIX ST.","30358","Atlanta","GA",33.998151,-84.34112,29,2,1,6
144,"TKGXB CO.","4544 IPYIGL ST.","30312","Atlanta","GA",33.745739,-84.3764,7,2,1,13
145,"ZQABG CO.","3627 CUGTAD ST.","31199","Atlanta","GA",33.844371,-84.47405,19,1,1,19
146,"GXGBZ CO.","356 ZOJLOK ST.","30378","Atlanta","GA",33.844371,-84.47405,22,1,2,1
147,"TSAJM CO.","4997 PFYFNA ST.","30318","Atlanta","GA",33.786805,-84.437,42,1,2,5
148,"DRSHX CO.","536 NEKCMH ST.","30394","Atlanta","GA",33.844371,-84.47405,10,1,2,18
149,"FLACC CO.","3038 DVNRVT ST.","30375","Atlanta","GA",33.844371,-84.47405,26,1,2,25
150,"LYBAL CO.","2565 ZGMPOA ST.","30343","Atlanta","GA",33.844371,-84.47405,12,0,1,10
151,"LUTUZ CO.","2969 LRXZRY ST.","30351","Atlanta","GA",33.844371,-84.47405,32,6,2,11
152,"XWEPJ CO.","5786 PCLHZG ST.","31193","Atlanta","GA",33.844371,-84.47405,37,2,2,28
153,"OOMPZ CO.","324 QVXOIF ST.","31139","Atlanta","GA",33.844371,-84.47405,13,4,3,28
154,"DBKTV CO.","1631 HKYFZM ST.","31141","Atlanta","GA",33.891251,-84.07456,38,2,3,3
155,"OXMZF CO.","9997 ZIKWIX ST.","30310","Atlanta","GA",33.727807,-84.41983,11,2,3,4
156,"QDNJB CO.","278 EJSZMO ST.","30361","Atlanta","GA",33.844371,-84.47405,30,3,3,1
157,"ZQJPW CO.","4338 OCXDED ST.","30316","Atlanta","GA",33.729506,-84.34087,15,3,1,20
158,"NCOXR CO.","3099 TBVPXZ ST.","30324","Atlanta","GA",33.818304,-84.35779,36,3,2,8
159,"MJNTQ CO.","8671 WKJWNN ST.","30396","Atlanta","GA",33.844371,-84.47405,31,3,1,18
160,"MALNV CO.","4805 AVECZR ST.","30364","Atlanta","GA",33.844371,-84.47405,12,2,2,28
161,"PHHEW CO.","8129 GTZWHG ST.","30311","Atlanta","GA",33.724907,-84.47131,14,3,1,2
162,"WRSKD CO.","3582 CYWLPZ ST.","31146","Atlanta","GA",33.891251,-84.07456,24,4,3,0
163,"VBMWQ CO.","1698 ZGFPKF ST.","30367","Atlanta","GA",33.789255,-84.387276,19,1,2,26
164,"HQVSI CO.","4614 RBDRHE ST.","31119","Atlanta","GA",33.891251,-84.07456,21,1,2,25
165,"PDGAS CO.","927 YQHKDH ST.","31119","Atlanta","GA",33.891251,-84.07456,45,4,2,20
166,"FWCYD CO.","8833 YNSWSL ST.","31199","Atlanta","GA",33.844371,-84.47405,35,3,2,14
167,"MLCIT CO.","5611 UYYIDE ST.","31197","Atlanta","GA",33.844371,-84.47405,22,3,1,5
168,"AOMZZ CO.","3672 BHSZEG ST.","30343","Atlanta","GA",33.844371,-84.47405,43,0,2,5
169,"FMODF CO.","1180 SCFZRG ST.","31196","Atlanta","GA",33.844371,-84.47405,48,2,3,24
170,"FJMTW CO.","8665 XKZGCZ ST.","30389","Atlanta","GA",33.844371,-84.47405,48,2,1,6
171,"BCNAY CO.","5090 RFSZMI ST.","31145","Atlanta","GA",33.891251,-84.07456,10,5,2,6
172,"KJXLF CO.","816 YTQMJJ ST.","30377","Atlanta","GA",33.844371,-84.47405,41,3,3,17
173,"DAGWV CO.","956 AAXGGT ST.","30367","Atlanta","GA",33.789255,-84.387276,23,3,3,22
174,"YOJYL CO.","7247 WSSSVW ST.","30347","Atlanta","GA",33.844371,-84.47405,5,4,2,11
175,"QVWXV CO.","2313 RDOVLU ST.","30346","Atlanta","GA",33.926753,-84.33877,13,3,3,25
176,"ACLNM CO.","9988 FCZDMS ST.","30321","Atlanta","GA",33.844371,-84.47405,24,2,1,17
177,"LRAYY CO.","5525 OKVWMR ST.","30327","Atlanta","GA",33.86427,-84.41972,41,2,1,11
178,"RNQTP CO.","8111 GJEJVM ST.","31199","Atlanta","GA",33.844371,-84.47405,13,2,3,29
179,"JAAVQ CO.","5436 LXOUXM ST.","30334","Atlanta","GA",33.702657,-84.439127,35,3,1,0
180,"CWXQR CO.","2789 XLNUVD ST.","30333","Atlanta","GA",33.891251,-84.07456,49,3,3,4
181,"BVDIK CO.","797 DJSRCC ST.","30358","Atlanta","GA",33.998151,-84.34112,10,2,2,7
182,"KKAZJ CO.","4766 OYWCOC ST.","30339","Atlanta","GA",33.87507,-84.46615,34,2,1,21
183,"EEWHC CO.","222 RQFKTL ST.","31120","Atlanta","GA",33.74,-84.38,11,2,1,15
184,"OOETX CO.","9119 EWSETG ST.","30362","Atlanta","GA",33.891251,-84.07456,7,2,1,19
185,"BMJCZ CO.","4231 EKEDUT ST.","30376","Atlanta","GA",33.844371,-84.47405,35,2,2,11
186,"HIOVY CO.","6282 BZTBJO ST.","30308","Atlanta","GA",33.771755,-84.38065,26,6,3,7
187,"NONNH CO.","1526 ZZBZEZ ST.","30336","Atlanta","GA",33.744007,-84.56032,5,3,2,7
188,"AANIW CO.","9961 SMXVQP ST.","30345","Atlanta","GA",33.851736,-84.28412,28,0,1,14
189,"BAKCO CO.","8891 PZBTHE ST.","30384","Atlanta","GA",33.844371,-84.47405,38,3,3,7
190,"VAAZU CO.","4894 BKANTX ST.","30351","Atlanta","GA",33.844371,-84.47405,50,3,1,27
191,"WZBZU CO.","1246 YFOILL ST.","31106","Atlanta","GA",33.844371,-84.47405,34,2,1,3
192,"CBONV CO.","4439 RPCHLK ST.","30360","Atlanta","GA",33.934536,-84.27215,14,4,2,30
193,"ILLMS CO.","7208 XGMVCZ ST.","30350","Atlanta","GA",33.97285,-84.32775,47,6,3,19
194,"ZMQUW CO.","6371 KWHYBD ST.","30361","Atlanta","GA",33.844371,-84.47405,16,2,1,6
195,"HXXQY CO.","6840 LSLJXZ ST.","30369","Atlanta","GA",33.844371,-84.47405,8,5,3,5
196,"HLGRV CO.","3499 LSLNTL ST.","31139","Atlanta","GA",33.844371,-84.47405,26,1,2,19
197,"UKOMC CO.","1778 TUGCAU ST.","30379","Atlanta","GA",33.844371,-84.47405,6,2,3,14
198,"WKYOB CO.","435 EZFSOF ST.","30360","Atlanta","GA",33.934536,-84.27215,23,6,1,10
199,"AXXOI CO.","8476 TJOWRJ ST.","30304","Atlanta","GA",33.848196,-84.429296,18,2,3,29
200,"DSVPN CO.","3301 WHUWPB ST.","30329","Atlanta","GA",33.827554,-84.32355,44,2,2,14
201,"IIHDC CO.","3257 BYCMEG ST.","30361","Atlanta","GA",33.844371,-84.47405,43,5,1,0
202,"DLGBE CO.","7839 PVUFIF ST.","31139","Atlanta","GA",33.844371,-84.47405,5,2,2,29
203,"XRBIG CO.","6209 YECRKI ST.","30312","Atlanta","GA",33.745739,-84.3764,14,4,3,2
204,"SMXAI CO.","9595 FQAUUY ST.","31106","Atlanta","GA",33.844371,-84.47405,6,7,1,18
205,"VLORJ CO.","3221 MHTRNI ST.","30307","Atlanta","GA",33.768205,-84.33786,12,2,1,24
206,"IUEWP CO.","7440 MYTCCT ST.","30368","Atlanta","GA",33.844371,-84.47405,47,2,1,13
207,"FFDDX CO.","895 WKMJRD ST.","30389","Atlanta","GA",33.844371,-84.47405,29,2,1,22
208,"PMKTH CO.","2484 HCAZOP ST.","30355","Atlanta","GA",33.844371,-84.47405,25,1,2,14
209,"HZSMS CO.","6189 IVHBPY ST.","30331","Atlanta","GA",33.715558,-84.52728,48,5,2,13
210,"PAQXY CO.","3289 MQQXUR ST.","30316","Atlanta","GA",33.729506,-84.34087,43,1,1,11
211,"OIHXJ CO.","1902 MDWGRB ST.","31192","Atlanta","GA",33.844371,-84.47405,36,4,1,25
212,"TGFGO CO.","18 NUVHKH ST.","30343","Atlanta","GA",33.844371,-84.47405,40,2,1,2
213,"GFWEH CO.","2741 SAGDVZ ST.","30306","Atlanta","GA",33.786755,-84.35149,9,3,2,14
214,"OTNOZ CO.","1188 RJNKDJ ST.","30375","Atlanta","GA",33.844371,-84.47405,36,4,3,15
215,"BQOVG CO.","4346 WEJCHM ST.","30337","Atlanta","GA",33.646984,-84.4538,24,4,1,23
216,"ONVPV CO.","1435 XMSNUC ST.","31119","Atlanta","GA",33.891251,-84.07456,34,1,3,9
217,"XKDQW CO.","7063 NCMJIX ST.","30364","Atlanta","GA",33.844371,-84.47405,28,5,2,15
218,"FYLPB CO.","8900 JJHNPQ ST.","30368","Atlanta","GA",33.844371,-84.47405,40,6,3,27
219,"TQUXW CO.","302 PUTIHH ST.","30316","Atlanta","GA",33.729506,-84.34087,38,3,3,7
220,"YPSNR CO.","394 BMULCY ST.","30392","Atlanta","GA",33.844371,-84.47405,30,3,2,17
221,"FZSNV CO.","6733 YXIYNI ST.","30313","Atlanta","GA",33.761223,-84.39599,22,5,1,8
222,"MCLUK CO.","7832 DHEEGN ST.","30328","Atlanta","GA",33.931746,-84.37817,13,1,2,19
223,"PSSFI CO.","5486 HKZDMX ST.","30331","Atlanta","GA",33.715558,-84.52728,36,0,2,4
224,"TJDBV CO.","852 IPQYUT ST.","30315","Atlanta","GA",33.709595,-84.38365,41,4,1,1
225,"YWYDH CO.","6702 PCKOSY ST.","30343","Atlanta","GA",33.844371,-84.47405,27,2,2,10
226,"NHFCW CO.","9129 SATDGF ST.","31198","Atlanta","GA",33.844371,-84.47405,5,7,3,22
227,"BGXJA CO.","1619 JEGFSK ST.","30325","Atlanta","GA",33.844371,-84.47405,8,3,1,10
228,"UNQSH CO.","1811 CWTCPN ST.","31136","Atlanta","GA",33.72,-84.58,41,3,1,21
229,"SMVFB CO.","1888 HBTMIL ST.","30324","Atlanta","GA",33.818304,-84.35779,37,3,1,17
230,"RZVVZ CO.","8450 RBYHAV ST.","30378","Atlanta","GA",33.844371,-84.47405,48,4,1,20
231,"BWXCV CO.","4410 QMOXEN ST.","30384","Atlanta","GA",33.844371,-84.47405,43,2,2,6
232,"PYUZM CO.","4342 OSYZBX ST.","30356","Atlanta","GA",33.891251,-84.07456,41,1,2,1
233,"OWYPZ CO.","5136 EWFAIF ST.","31120","Atlanta","GA",33.74,-84.38,17,3,1,16
234,"SRMSJ CO.","5274 QQZLFY ST.","30355","Atlanta","GA",33.844371,-84.47405,7,2,2,27
235,"EBHKF CO.","9857 RRAAJZ ST.","30365","Atlanta","GA",33.844371,-84.47405,13,3,2,19
236,"HBMHP CO.","1717 WGHHCT ST.","31150","Atlanta","GA",33.844371,-84.47405,44,5,2,12
237,"PGWYO CO.","3507 WEJBXX ST.","30321","Atlanta","GA",33.844371,-84.47405,36,1,2,16
238,"DUYIV CO.","8847 QNRTXS ST.","30316","Atlanta","GA",33.729506,-84.34087,37,2,1,22
239,"XJHMJ CO.","5193 JJEOHR ST.","30333","Atlanta","GA",33.891251,-84.07456,22,3,3,16
240,"CMJSV CO.","9467 FOQCDJ ST.","30351","Atlanta","GA",33.844371,-84.47405,12,4,1,4
241,"SMOZF CO.","7794 IVZWEJ ST.","31191","Atlanta","GA",33.844371,-84.47405,32,6,2,17
242,"OCWXJ CO.","2910 MWKLRI ST.","30302","Atlanta","GA",33.844371,-84.47405,42,0,2,13
243,"GXRJD CO.","6688 IJEKCI ST.","30330","Atlanta","GA",33.707107,-84.432127,16,3,1,19
244,"SUYRX CO.","7498 QRAUQW ST.","31193","Atlanta","GA",33.844371,-84.47405,16,7,2,10
245,"FPOYK CO.","2849 TLAGHZ ST.","31156","Atlanta","GA",33.844371,-84.47405,27,5,3,13
246,"KUFOL CO.","6410 YOLBOH ST.","30332","Atlanta","GA",33.776305,-84.397976,50,4,3,21
247,"CNOZJ CO.","439 JSUYPH ST.","31139","Atlanta","GA",33.844371,-84.47405,17,1,2,15
248,"BPUEH CO.","5813 KMIXKA ST.","30357","Atlanta","GA",33.844371,-84.47405,42,3,1,9
249,"SUNUB CO.","1825 RTLOUJ ST.","30317","Atlanta","GA",33.750005,-84.31854,28,0,3,7
250,"VMHJE CO.","206 KKAGRZ ST.","30310","Atlanta","GA",33.727807,-84.41983,24,5,1,14
251,"DLBYG CO.","5040 EZKSFV ST.","31107","Atlanta","GA",33.844371,-84.47405,19,3,2,3
252,"VAVFR CO.","132 IKMNIF ST.","30349","Atlanta","GA",33.61541,-84.49033,28,6,1,21
253,"TRRYQ CO.","8475 WKAXYB ST.","30384","Atlanta","GA",33.844371,-84.47405,28,3,3,22
254,"SNJRK CO.","8726 UDPLQO ST.","31106","Atlanta","GA",33.844371,-84.47405,8,0,1,25
255,"WZSIH CO.","3815 XOTDTM ST.","30354","Atlanta","GA",33.658834,-84.39682,7,1,2,9
256,"ZHCUT CO.","5830 GELQDA ST.","30387","Atlanta","GA",33.844371,-84.47405,15,2,2,12
257,"IZYNR CO.","7221 GMAZTQ ST.","30348","Atlanta","GA",33.844371,-84.47405,14,4,2,14
258,"BJLXF CO.","2649 PYYYMJ ST.","30362","Atlanta","GA",33.891251,-84.07456,26,1,2,10
259,"BNIYR CO.","6595 LSATXD ST.","31193","Atlanta","GA",33.844371,-84.47405,38,1,3,21
260,"ZWFPK CO.","7383 ECKXKM ST.","30329","Atlanta","GA",33.827554,-84.32355,24,2,2,29
261,"BWXRG CO.","9459 RCTYWC ST.","31150","Atlanta","GA",33.844371,-84.47405,24,2,1,7
262,"CUEOO CO.","5243 MLOXQN ST.","30363","Atlanta","GA",33.844371,-84.47405,43,3,2,16
263,"IWXSB CO.","9030 KYAWNC ST.","30322","Atlanta","GA",33.793754,-84.3238,37,4,1,18
264,"KHGKD CO.","6232 GHXSSU ST.","30377","Atlanta","GA",33.844371,-84.47405,38,1,1,2
265,"EOTVP CO.","5000 SDLMYV ST.","31197","Atlanta","GA",33.844371,-84.47405,38,2,3,17
266,"XQGNU CO.","7147 TTYLKX ST.","30386","Atlanta","GA",33.844371,-84.47405,11,1,3,18
267,"RYMYP CO.","7426 HVGNVX ST.","30307","Atlanta","GA",33.768205,-84.33786,27,5,1,4
268,"YFIAO CO.","2654 ZONVZS ST.","30381","Atlanta","GA",33.844371,-84.47405,25,8,3,15
269,"YQNEM CO.","8632 XFRTSX ST.","30323","Atlanta","GA",33.844371,-84.47405,37,6,3,25
270,"KAGZP CO.","2340 IAPDZM ST.","30319","Atlanta","GA",33.872053,-84.33611,30,1,1,0
271,"KLXFJ CO.","6066 ZEPEPG ST.","30358","Atlanta","GA",33.998151,-84.34112,20,1,1,12
272,"STHSP CO.","9150 EZILVI ST.","30314","Atlanta","GA",33.758056,-84.42268,36,2,2,21
273,"DRIAQ CO.","9322 KOESSD ST.","30351","Atlanta","GA",33.844371,-84.47405,10,5,1,29
274,"TLMXS CO.","580 JOPZLH ST.","30353","Atlanta","GA",33.844371,-84.47405,19,6,2,13
275,"TNTIK CO.","530 OIDKBG ST.","30328","Atlanta","GA",33.931746,-84.37817,17,4,1,8
276,"UDRPC CO.","4916 DUPETB ST.","30394","Atlanta","GA",33.844371,-84.47405,32,4,3,2
277,"VVGIJ CO.","5281 UUKCAN ST.","31119","Atlanta","GA",33.891251,-84.07456,26,1,3,1
278,"CCONZ CO.","4275 HPQLRS ST.","31141","Atlanta","GA",33.891251,-84.07456,27,6,2,9
279,"HGGUP CO.","710 DSHEML ST.","30378","Atlanta","GA",33.844371,-84.47405,38,3,1,20
280,"JLIMH CO.","3973 RRZSPD ST.","30399","Atlanta","GA",33.844371,-84.47405,44,4,2,6
281,"XBNIQ CO.","3072 GVQEQG ST.","30328","Atlanta","GA",33.931746,-84.37817,24,2,1,18
282,"EMTST CO.","4381 NSCRLC ST.","31139","Atlanta","GA",33.844371,-84.47405,30,1,3,7
283,"HOLFQ CO.","9402 OGKRWW ST.","30362","Atlanta","GA",33.891251,-84.07456,25,1,1,27
284,"JUBPA CO.","7745 TBHSPD ST.","31192","Atlanta","GA",33.844371,-84.47405,20,4,2,28
285,"NEAUK CO.","5396 BWXRON ST.","31156","Atlanta","GA",33.844371,-84.47405,22,2,2,22
286,"XJATZ CO.","3597 FVQGSK ST.","30351","Atlanta","GA",33.844371,-84.47405,12,4,2,13
287,"VOOAN CO.","1123 BGMGMZ ST.","31141","Atlanta","GA",33.891251,-84.07456,46,2,3,14
288,"AAYXW CO.","2136 NGJKRM ST.","30320","Atlanta","GA",33.656824,-84.423648,5,3,1,1
289,"VIKJG CO.","6091 MXOEXS ST.","30370","Atlanta","GA",33.844371,-84.47405,39,3,3,25
290,"HEZMV CO.","5398 RZHDSA ST.","30308","Atlanta","GA",33.771755,-84.38065,9,0,1,14
291,"FBEUC CO.","6730 FVTYHW ST.","31120","Atlanta","GA",33.74,-84.38,7,3,2,19
292,"JWHGH CO.","1485 RYNGCS ST.","30362","Atlanta","GA",33.891251,-84.07456,22,2,3,9
293,"PDPWB CO.","5060 TRGMMZ ST.","30370","Atlanta","GA",33.844371,-84.47405,21,2,2,25
294,"IOKQH CO.","9203 NHSNFO ST.","30347","Atlanta","GA",33.844371,-84.47405,48,3,3,24
295,"BGGVH CO.","8869 RZDYMF ST.","31150","Atlanta","GA",33.844371,-84.47405,14,3,2,2
296,"FSESP CO.","4080 EOGPGM ST.","30367","Atlanta","GA",33.789255,-84.387276,29,2,1,1
297,"MVOOP CO.","2240 FPAXRT ST.","31193","Atlanta","GA",33.844371,-84.47405,43,4,1,6
298,"VJEOW CO.","1204 EGLAAN ST.","30365","Atlanta","GA",33.844371,-84.47405,45,2,3,2
299,"XBIRJ CO.","5103 CAVDFS ST.","30388","Atlanta","GA",33.844371,-84.47405,20,1,3,3
300,"DPVMZ CO.","480 LTDOVU ST.","30366","Atlanta","GA",33.891251,-84.07456,42,1,1,6
301,"IHYZP CO.","420 EQJEUS ST.","30354","Atlanta","GA",33.658834,-84.39682,45,4,3,16
302,"TSQNV CO.","5492 LUHNDL ST.","30346","Atlanta","GA",33.926753,-84.33877,5,5,3,11
303,"WVGEM CO.","4677 TVTFOE ST.","30356","Atlanta","GA",33.891251,-84.07456,43,8,2,0
304,"DYDQY CO.","436 RVGLJF ST.","30370","Atlanta","GA",33.844371,-84.47405,13,3,2,30
305,"CRENF CO.","6150 JFBNOK ST.","30359","Atlanta","GA",33.891251,-84.07456,13,4,1,16
306,"NDBGW CO.","8069 IGXUXO ST.","30322","Atlanta","GA",33.793754,-84.3238,34,3,3,11
307,"MYIKY CO.","3155 DCLGBH ST.","30305","Atlanta","GA",33.830054,-84.38472,23,1,2,12
308,"KIBYR CO.","8282 ERCYPV ST.","30307","Atlanta","GA",33.768205,-84.33786,36,4,2,0
309,"YIDLD CO.","5350 BTRXTZ ST.","30390","Atlanta","GA",33.844371,-84.47405,49,2,3,10
310,"SYJXX CO.","4017 AWJVHR ST.","30340","Atlanta","GA",33.899381,-84.25367,42,2,3,8
311,"UOIPX CO.","1200 JFUPNR ST.","30360","Atlanta","GA",33.934536,-84.27215,21,0,3,1
312,"TSCVF CO.","1857 FDLGKW ST.","30319","Atlanta","GA",33.872053,-84.33611,5,2,3,18
313,"LPXAF CO.","7942 ZCSJVD ST.","30388","Atlanta","GA",33.844371,-84.47405,37,2,3,29
314,"QLLAC CO.","2889 ANQADY ST.","30384","Atlanta","GA",33.844371,-84.47405,30,2,1,28
315,"ZBSQI CO.","7103 IGJKUG ST.","30365","Atlanta","GA",33.844371,-84.47405,27,5,2,22
316,"YDPVE CO.","7777 GBGJZN ST.","30387","Atlanta","GA",33.844371,-84.47405,13,6,3,16
317,"HRGHK CO.","2772 LOMZDO ST.","30385","Atlanta","GA",33.844371,-84.47405,6,3,1,28
318,"HXZBW CO.","3017 AFEAZJ ST.","30339","Atlanta","GA",33.87507,-84.46615,32,0,1,30
319,"NJIUW CO.","1963 KCVZBY ST.","30356","Atlanta","GA",33.891251,-84.07456,10,4,2,22
320,"SWDAN CO.","6492 LSRDUC ST.","30329","Atlanta","GA",33.827554,-84.32355,17,4,2,4
321,"OQNSI CO.","8022 JKZBEJ ST.","30304","Atlanta","GA",33.848196,-84.429296,25,3,3,25
322,"NMPIW CO.","4002 OQYSRL ST.","30344","Atlanta","GA",33.676258,-84.44977,10,2,1,22
323,"MGIEZ CO.","1185 VXQPRV ST.","30304","Atlanta","GA",33.848196,-84.429296,32,2,3,9
324,"CRVLT CO.","4228 WHCOJI ST.","31106","Atlanta","GA",33.844371,-84.47405,5,3,2,3
325,"SEXJI CO.","8729 DLJBJX ST.","30301","Atlanta","GA",33.844371,-84.47405,22,5,1,4
326,"SUVQV CO.","7624 DAGYOO ST.","30312","Atlanta","GA",33.745739,-84.3764,14,6,2,17
327,"SIZIX CO.","8538 YGACZO ST.","30347","Atlanta","GA",33.844371,-84.47405,24,0,2,25
328,"KROOJ CO.","9501 LLTBAF ST.","30394","Atlanta","GA",33.844371,-84.47405,21,7,2,16
329,"ARIYV CO.","8582 UQMYUF ST.","30340","Atlanta","GA",33.899381,-84.25367,37,4,3,12
330,"OCCDD CO.","5479 GKSOPD ST.","31198","Atlanta","GA",33.844371,-84.47405,21,2,3,22
331,"JKRBD CO.","760 HKOIGX ST.","31106","Atlanta","GA",33.844371,-84.47405,24,5,2,15
332,"EGACD CO.","4831 GRVTPD ST.","30340","Atlanta","GA",33.899381,-84.25367,26,4,3,23
333,"ACZDH CO.","2820 ZHTRVA ST.","30347","Atlanta","GA",33.844371,-84.47405,14,3,1,30
334,"PLHDD CO.","5571 DIBIGN ST.","30313","Atlanta","GA",33.761223,-84.39599,9,3,2,7
335,"YWSCK CO.","1371 TRYRIC ST.","30354","Atlanta","GA",33.658834,-84.39682,24,2,3,0
336,"UNPWI CO.","6367 ROWVSC ST.","30384","Atlanta","GA",33.844371,-84.47405,41,3,1,21
337,"CQHMP CO.","4644 HPIPRQ ST.","30324","Atlanta","GA",33.818304,-84.35779,6,1,1,26
338,"NFUJN CO.","2379 YRNWTV ST.","30349","Atlanta","GA",33.61541,-84.49033,29,3,2,10
339,"FACCQ CO.","2584 VJBNZQ ST.","30386","Atlanta","GA",33.844371,-84.47405,16,6,3,27
340,"DCVPO CO.","3534 DDDTXB ST.","30312","Atlanta","GA",33.745739,-84.3764,34,7,3,20
341,"PXQNB CO.","1749 ANCZVP ST.","30340","Atlanta","GA",33.899381,-84.25367,14,6,3,26
342,"HRNLD CO.","40 LVDQAX ST.","31199","Atlanta","GA",33.844371,-84.47405,9,6,3,16
343,"CZWBL CO.","1906 PJQFOU ST.","31150","Atlanta","GA",33.844371,-84.47405,15,0,1,20
344,"MXRTI CO.","7322 XEWYRX ST.","39901","Atlanta","GA",33.891251,-84.07456,8,0,1,0
345,"ODUBN CO.","8580 IBELMZ ST.","30313","Atlanta","GA",33.761223,-84.39599,46,3,3,15
346,"AUENZ CO.","2521 QYLKEE ST.","30323","Atlanta","GA",33.844371,-84.47405,11,7,2,29
347,"STYUE CO.","3821 HUUFSV ST.","31107","Atlanta","GA",33.844371,-84.47405,42,2,3,13
348,"NYZNF CO.","896 RTJSSE ST.","30336","Atlanta","GA",33.744007,-84.56032,46,3,3,28
349,"DWURO CO.","2092 KVRMPD ST.","31196","Atlanta","GA",33.844371,-84.47405,21,3,1,20
350,"ABNTQ CO.","7005 EPXMIZ ST.","31126","Atlanta","GA",33.844371,-84.47405,34,2,1,12
351,"QWIZZ CO.","8613 HUJVCD ST.","30340","Atlanta","GA",33.899381,-84.25367,39,4,1,25
352,"GNIZK CO.","5827 JPXVID ST.","30315","Atlanta","GA",33.709595,-84.38365,12,3,2,13
353,"SUAPM CO.","7603 ZWMOTB ST.","30390","Atlanta","GA",33.844371,-84.47405,48,3,1,20
354,"PMVZJ CO.","6334 SEENMZ ST.","30379","Atlanta","GA",33.844371,-84.47405,25,3,1,14
355,"URARI CO.","636 NJLDLR ST.","30318","Atlanta","GA",33.786805,-84.437,31,1,2,10
356,"YXMNQ CO.","7669 LJSKFL ST.","31150","Atlanta","GA",33.844371,-84.47405,16,2,1,7
357,"XLPLZ CO.","4522 CXPHQN ST.","30359","Atlanta","GA",33.891251,-84.07456,35,3,2,29
358,"MLBKN CO.","1688 BEEPPP ST.","30381","Atlanta","GA",33.844371,-84.47405,15,8,2,18
359,"EEOVE CO.","4171 GHFZOM ST.","30321","Atlanta","GA",33.844371,-84.47405,44,4,2,6
360,"MBWBG CO.","4447 GIIRBN ST.","30318","Atlanta","GA",33.786805,-84.437,7,2,2,24
361,"ZIENN CO.","8737 NFFKOK ST.","31141","Atlanta","GA",33.891251,-84.07456,15,4,3,7
362,"OEZVV CO.","2334 XPTGBR ST.","30390","Atlanta","GA",33.844371,-84.47405,29,4,2,17
363,"KAKNS CO.","9760 MJKVLF ST.","30353","Atlanta","GA",33.844371,-84.47405,15,2,3,9
364,"JBCPJ CO.","2182 QKCDCU ST.","30301","Atlanta","GA",33.844371,-84.47405,43,4,1,13
365,"VBNCE CO.","1642 APVPVW ST.","30387","Atlanta","GA",33.844371,-84.47405,7,4,2,0
366,"BDFIP CO.","3433 CSTGJN ST.","30399","Atlanta","GA",33.844371,-84.47405,46,1,1,13
367,"DOIPL CO.","5656 STPWTW ST.","31191","Atlanta","GA",33.844371,-84.47405,13,1,2,2
368,"ODHCM CO.","424 HAXVCH ST.","31126","Atlanta","GA",33.844371,-84.47405,7,2,3,22
369,"JJWHT CO.","6061 DDQMLU ST.","30364","Atlanta","GA",33.844371,-84.47405,32,1,2,17
370,"TQWPS CO.","8353 WDFNYD ST.","31120","Atlanta","GA",33.74,-84.38,47,0,3,2
371,"MXTWQ CO.","5161 EYGRKU ST.","30336","Atlanta","GA",33.744007,-84.56032,37,2,1,19
372,"LARRX CO.","4137 PAXTRP ST.","30388","Atlanta","GA",33.844371,-84.47405,40,4,2,9
373,"IPDOW CO.","3808 LIUIKE ST.","30343","Atlanta","GA",33.844371,-84.47405,48,1,2,20
374,"ZMTUL CO.","6949 DWMWOX ST.","30327","Atlanta","GA",33.86427,-84.41972,21,5,2,1
375,"ISJIJ CO.","8444 CNXFWF ST.","30371","Atlanta","GA",33.844371,-84.47405,24,3,2,17
376,"YVHLT CO.","1991 LNPVYR ST.","31145","Atlanta","GA",33.891251,-84.07456,18,1,1,7
377,"ZRJGL CO.","5489 INLYZZ ST.","30363","Atlanta","GA",33.844371,-84.47405,26,4,1,26
378,"ATXUM CO.","4905 BPJEBB ST.","30368","Atlanta","GA",33.844371,-84.47405,25,2,3,15
379,"WNJUS CO.","3696 AMZOFC ST.","30366","Atlanta","GA",33.891251,-84.07456,8,4,2,6
380,"SRVPE CO.","9285 HXIKEK ST.","30344","Atlanta","GA",33.676258,-84.44977,38,0,3,27
381,"ASBVQ CO.","8826 RFOAOY ST.","31192","Atlanta","GA",33.844371,-84.47405,37,2,3,18
382,"UDDTS CO.","7858 ODDYFB ST.","30323","Atlanta","GA",33.844371,-84.47405,10,6,2,25
383,"UUHBX CO.","3337 NEJDHC ST.","30371","Atlanta","GA",33.844371,-84.47405,9,2,2,1
384,"DVSJU CO.","4193 UPOVOQ ST.","30314","Atlanta","GA",33.758056,-84.42268,18,4,3,24
385,"HWTHM CO.","1415 GNEORG ST.","30388","Atlanta","GA",33.844371,-84.47405,50,2,1,10
386,"ZYEYA CO.","2702 USMCPL ST.","30311","Atlanta","GA",33.724907,-84.47131,15,7,3,6
387,"PEPZK CO.","1068 HDPTIF ST.","30350","Atlanta","GA",33.97285,-84.32775,17,5,1,11
388,"GSNMG CO.","2708 AKDROK ST.","30319","Atlanta","GA",33.872053,-84.33611,14,3,1,24
389,"ZZJWT CO.","4786 CIRWEE ST.","30316","Atlanta","GA",33.729506,-84.34087,8,2,2,30
390,"GPCKC CO.","153 QLRTXY ST.","31126","Atlanta","GA",33.844371,-84.47405,40,4,1,20
391,"BCVOJ CO.","3859 SZVNHA ST.","30375","Atlanta","GA",33.844371,-84.47405,29,3,1,4
392,"WWERM CO.","4203 IXCKEY ST.","30324","Atlanta","GA",33.818304,-84.35779,14,2,1,1
393,"OJTXO CO.","2060 YYCYJD ST.","30881","Atlanta","GA",33.793006,-84.504081,47,4,3,29
394,"NKOMA CO.","9016 LUZVOA ST.","30308","Atlanta","GA",33.771755,-84.38065,49,2,1,17
395,"QROVR CO.","4068 KSITXW ST.","30379","Atlanta","GA",33.844371,-84.47405,6,4,3,22
396,"WBYMY CO.","8196 QOCSBG ST.","30327","Atlanta","GA",33.86427,-84.41972,21,4,2,3
397,"QWBFV CO.","9992 YLOXSB ST.","31197","Atlanta","GA",33.844371,-84.47405,25,5,1,2
398,"KVNEN CO.","3148 WJDHEV ST.","30358","Atlanta","GA",33.998151,-84.34112,23,4,1,22
399,"HZWVT CO.","7557 ULWCAK ST.","30333","Atlanta","GA",33.891251,-84.07456,19,1,2,10
400,"TGSVO CO.","3367 ZWVJYN ST.","30304","Atlanta","GA",33.848196,-84.429296,7,4,3,20
401,"EYXME CO.","3160 DIEWHR ST.","30311","Atlanta","GA",33.724907,-84.47131,33,2,3,8
402,"EHODL CO.","4915 TAEKCL ST.","30347","Atlanta","GA",33.844371,-84.47405,5,9,3,0
403,"XNKFV CO.","3823 QIDJLE ST.","30369","Atlanta","GA",33.844371,-84.47405,21,4,1,1
404,"HANWS CO.","1823 AFKPHD ST.","30386","Atlanta","GA",33.844371,-84.47405,32,3,2,29
405,"TPPFQ CO.","3752 PTEFWZ ST.","30345","Atlanta","GA",33.851736,-84.28412,5,5,2,16
406,"FPSSX CO.","4104 NSDIIF ST.","30385","Atlanta","GA",33.844371,-84.47405,15,3,1,21
407,"WSZXA CO.","7161 THBOPR ST.","30366","Atlanta","GA",33.891251,-84.07456,13,3,2,5
408,"XGVBN CO.","8782 DCENZE ST.","30327","Atlanta","GA",33.86427,-84.41972,12,2,3,14
409,"DJNMB CO.","1586 PKFZHF ST.","30399","Atlanta","GA",33.844371,-84.47405,34,2,2,2
410,"CKVXV CO.","9451 CTDYIW ST.","30365","Atlanta","GA",33.844371,-84.47405,12,4,3,1
411,"OOOAQ CO.","238 RALLPM ST.","31119","Atlanta","GA",33.891251,-84.07456,34,1,1,30
412,"RCPQY CO.","303 CKQUIG ST.","30362","Atlanta","GA",33.891251,-84.07456,39,1,3,15
413,"SCXTB CO.","6695 OJJUTS ST.","30326","Atlanta","GA",33.849853,-84.3606,5,1,2,26
414,"SUBQP CO.","8871 AKCGUU ST.","30362","Atlanta","GA",33.891251,-84.07456,46,2,3,17
415,"KWXZA CO.","1067 RRUDSU ST.","30366","Atlanta","GA",33.891251,-84.07456,16,1,2,8
416,"OHQOV CO.","485 HRYKBR ST.","30368","Atlanta","GA",33.844371,-84.47405,18,4,3,6
417,"FXUXU CO.","3387 HYMUSV ST.","30363","Atlanta","GA",33.844371,-84.47405,14,3,2,10
418,"XJONU CO.","2225 KXINNH ST.","30358","Atlanta","GA",33.998151,-84.34112,28,1,3,24
419,"ULODF CO.","1994 THRXFT ST.","30344","Atlanta","GA",33.676258,-84.44977,8,4,3,12
420,"IYBEE CO.","683 CWLECL ST.","30386","Atlanta","GA",33.844371,-84.47405,13,0,2,3
421,"MMWFZ CO.","3793 MENIHK ST.","30346","Atlanta","GA",33.926753,-84.33877,41,1,1,6
422,"JLKEP CO.","6592 NHVPNF ST.","30374","Atlanta","GA",33.844371,-84.47405,39,6,3,2
423,"PWSMR CO.","6306 KLSPXT ST.","30324","Atlanta","GA",33.818304,-84.35779,22,3,3,21
424,"ZMTIX CO.","7381 ONFTQL ST.","30392","Atlanta","GA",33.844371,-84.47405,29,0,2,0
425,"JPGOC CO.","2398 OIKNUV ST.","30304","Atlanta","GA",33.848196,-84.429296,26,0,2,3
426,"MGXLD CO.","8190 NHKPJI ST.","39901","Atlanta","GA",33.891251,-84.07456,20,4,2,10
427,"BBBWI CO.","7555 VPNMED ST.","30321","Atlanta","GA",33.844371,-84.47405,28,6,1,19
428,"RGQPH CO.","6034 SOTKFG ST.","30350","Atlanta","GA",33.97285,-84.32775,43,2,1,23
429,"PNGUA CO.","8921 YFHIKF ST.","30311","Atlanta","GA",33.724907,-84.47131,36,4,3,21
430,"OGQMI CO.","2210 QGZDCH ST.","30341","Atlanta","GA",33.888102,-84.29321,18,6,1,29
431,"NPNXI CO.","280 VUOBUC ST.","30367","Atlanta","GA",33.789255,-84.387276,7,3,2,7
432,"IVOUI CO.","123 LSTLZD ST.","30328","Atlanta","GA",33.931746,-84.37817,34,1,2,3
433,"ATHVS CO.","6046 BPSLOR ST.","30881","Atlanta","GA",33.793006,-84.504081,13,1,1,30
434,"DLIFO CO.","2422 JDCTEH ST.","30332","Atlanta","GA",33.776305,-84.397976,43,2,3,5
435,"SJOZA CO.","8098 ICHXXK ST.","30337","Atlanta","GA",33.646984,-84.4538,46,3,3,30
436,"BBVYJ CO.","8348 CUFERW ST.","30320","Atlanta","GA",33.656824,-84.423648,45,5,2,26
437,"CZQJG CO.","4827 GZZIQH ST.","30396","Atlanta","GA",33.844371,-84.47405,12,4,1,6
438,"TUPQQ CO.","9268 QFTJNA ST.","30304","Atlanta","GA",33.848196,-84.429296,7,3,3,22
439,"FOLPG CO.","2403 OXQZTN ST.","30309","Atlanta","GA",33.794055,-84.38525,40,5,3,27
440,"HNGTT CO.","9644 UOCKZU ST.","30344","Atlanta","GA",33.676258,-84.44977,27,2,1,26
441,"WCGEC CO.","7279 LPDGKR ST.","30368","Atlanta","GA",33.844371,-84.47405,14,4,2,15
442,"GEYXB CO.","3708 CTMAEK ST.","30321","Atlanta","GA",33.844371,-84.47405,37,4,2,21
443,"DHJTT CO.","9842 DFRWDU ST.","30309","Atlanta","GA",33.794055,-84.38525,11,2,1,15
444,"CJMPJ CO.","5494 CQRUGV ST.","30366","Atlanta","GA",33.891251,-84.07456,46,9,3,15
445,"MRLOI CO.","4250 JBVAXA ST.","30394","Atlanta","GA",33.844371,-84.47405,44,2,2,19
446,"GWRWV CO.","5544 KBPQWI ST.","30328","Atlanta","GA",33.931746,-84.37817,19,2,2,17
447,"LIWPB CO.","3373 URJVNE ST.","30316","Atlanta","GA",33.729506,-84.34087,7,1,2,24
448,"KTESG CO.","5453 IARYFM ST.","30315","Atlanta","GA",33.709595,-84.38365,31,8,2,15
449,"TRRYX CO.","820 JWPOVF ST.","30359","Atlanta","GA",33.891251,-84.07456,6,2,1,8
450,"VQNJD CO.","470 PTGWKX ST.","30345","Atlanta","GA",33.851736,-84.28412,14,3,1,9
451,"OBZIA CO.","4223 LCWICL ST.","30387","Atlanta","GA",33.844371,-84.47405,44,4,3,16
452,"RLURR CO.","7730 ETZACP ST.","30303","Atlanta","GA",33.752856,-84.39013,16,5,3,1
453,"HIAGY CO.","6679 LQLMEK ST.","30380","Atlanta","GA",33.844371,-84.47405,23,4,1,21
454,"QLJJA CO.","5223 AWMXDW ST.","31136","Atlanta","GA",33.72,-84.58,27,4,3,18
455,"RUKSM CO.","6615 QQOREN ST.","31150","Atlanta","GA",33.844371,-84.47405,49,3,3,6
456,"TSFYW CO.","9153 JOHVMQ ST.","30302","Atlanta","GA",33.844371,-84.47405,7,4,2,4
457,"NETYR CO.","6271 NSKYUP ST.","30346","Atlanta","GA",33.926753,-84.33877,7,4,2,21
458,"IIYTQ CO.","8198 KFYRUD ST.","30309","Atlanta","GA",33.794055,-84.38525,43,3,3,25
459,"OFNMC CO.","7678 BLWWVV ST.","30319","Atlanta","GA",33.872053,-84.33611,37,6,1,0
460,"TADYI CO.","1473 DVNXVH ST.","30304","Atlanta","GA",33.848196,-84.429296,13,4,3,13
461,"CTYRL CO.","6677 MNSMPP ST.","31196","Atlanta","GA",33.844371,-84.47405,21,2,1,17
462,"AUAXY CO.","6682 TCTDWM ST.","30310","Atlanta","GA",33.727807,-84.41983,46,5,1,16
463,"MVUTH CO.","8401 VVDBNL ST.","30361","Atlanta","GA",33.844371,-84.47405,13,1,1,29
464,"HKZBT CO.","5566 HCOGWN ST.","30386","Atlanta","GA",33.844371,-84.47405,26,3,1,1
465,"NCYFQ CO.","936 NNAISB ST.","30345","Atlanta","GA",33.851736,-84.28412,8,4,3,30
466,"RHAFK CO.","4373 HYHQAU ST.","31191","Atlanta","GA",33.844371,-84.47405,40,1,2,30
467,"NFESQ CO.","527 AXVYYJ ST.","30374","Atlanta","GA",33.844371,-84.47405,11,2,1,7
468,"BUOXE CO.","474 RISZQR ST.","30348","Atlanta","GA",33.844371,-84.47405,37,1,2,10
469,"NQOPY CO.","1224 XBTSTI ST.","30308","Atlanta","GA",33.771755,-84.38065,49,3,3,9
470,"EVQGD CO.","6234 RPGNJC ST.","31119","Atlanta","GA",33.891251,-84.07456,48,3,1,22
471,"VCYUW CO.","2113 FHPNIB ST.","30386","Atlanta","GA",33.844371,-84.47405,42,2,3,10
472,"CSXPK CO.","7166 ZCRPXM ST.","30307","Atlanta","GA",33.768205,-84.33786,27,2,2,27
473,"DHSRJ CO.","3355 SLROBZ ST.","30357","Atlanta","GA",33.844371,-84.47405,26,3,2,0
474,"EGWDS CO.","8576 AMTZSR ST.","31192","Atlanta","GA",33.844371,-84.47405,32,1,2,10
475,"IPWEX CO.","5761 YPLHDD ST.","30338","Atlanta","GA",33.942751,-84.31769,40,1,2,5
476,"EVNBY CO.","8739 EKUVBD ST.","30377","Atlanta","GA",33.844371,-84.47405,44,5,1,5
477,"RYUHA CO.","3758 OZZPKZ ST.","31119","Atlanta","GA",33.891251,-84.07456,22,4,3,1
478,"OXOCP CO.","1814 FHWXVQ ST.","30314","Atlanta","GA",33.758056,-84.42268,38,5,1,7
479,"RJKBM CO.","4754 MFNHXP ST.","30329","Atlanta","GA",33.827554,-84.32355,27,5,1,8
480,"WKTBP CO.","5192 RDERMT ST.","31192","Atlanta","GA",33.844371,-84.47405,22,4,2,12
481,"FEUMN CO.","5622 QMNRKK ST.","30311","Atlanta","GA",33.724907,-84.47131,23,2,2,0
482,"PCLLY CO.","9354 EHAIRB ST.","31197","Atlanta","GA",33.844371,-84.47405,46,3,3,22
483,"QMPYG CO.","9236 HTNJAX ST.","30317","Atlanta","GA",33.750005,-84.31854,20,3,1,30
484,"RPHNQ CO.","743 KUNBZI ST.","30341","Atlanta","GA",33.888102,-84.29321,40,1,3,4
485,"OFBLX CO.","3699 QYJJSK ST.","31131","Atlanta","GA",33.844371,-84.47405,18,6,3,16
486,"AOALV CO.","2472 FYRXIN ST.","30340","Atlanta","GA",33.899381,-84.25367,22,5,1,30
487,"KGADL CO.","1107 WUZBMB ST.","30343","Atlanta","GA",33.844371,-84.47405,47,3,1,13
488,"USXQK CO.","8514 VHNUAV ST.","31106","Atlanta","GA",33.844371,-84.47405,40,6,1,17
489,"HZAAI CO.","8814 VPPEZA ST.","30386","Atlanta","GA",33.844371,-84.47405,44,3,1,30
490,"RHSSQ CO.","7906 QAPJNR ST.","30367","Atlanta","GA",33.789255,-84.387276,50,3,2,4
491,"BOEUK CO.","5509 DYIMCG ST.","30363","Atlanta","GA",33.844371,-84.47405,40,0,2,8
492,"ZWLZO CO.","3682 ACZZVY ST.","30307","Atlanta","GA",33.768205,-84.33786,34,0,3,13
493,"JUKSF CO.","5267 BOBNXB ST.","31156","Atlanta","GA",33.844371,-84.47405,14,3,1,27
494,"DRWQT CO.","9615 EOKOGZ ST.","30338","Atlanta","GA",33.942751,-84.31769,15,3,2,28
495,"QKJSG CO.","1601 LYIURX ST.","30342","Atlanta","GA",33.879003,-84.37203,14,2,2,29
496,"BAVBD CO.","4913 YSRCVO ST.","30325","Atlanta","GA",33.844371,-84.47405,45,1,3,29
497,"LKJAS CO.","396 UWNCCU ST.","30375","Atlanta","GA",33.844371,-84.47405,23,1,2,9
498,"HKRID CO.","2441 YCYUQP ST.","31193","Atlanta","GA",33.844371,-84.47405,28,1,1,30
499,"ZQIEE CO.","2652 FKTIKA ST.","30390","Atlanta","GA",33.844371,-84.47405,6,5,2,16
500,"BEOOT CO.","8922 ZGJPXZ ST.","30332","Atlanta","GA",33.776305,-84.397976,49,3,1,10
501,"RMDBR CO.","6213 SSKZWG ST.","31145","Atlanta","GA",33.891251,-84.07456,34,4,1,29
502,"KJUNG CO.","4721 PBSWET ST.","31119","Atlanta","GA",33.891251,-84.07456,31,2,2,13
503,"DIERP CO.","9524 BRIBOL ST.","30327","Atlanta","GA",33.86427,-84.41972,11,4,2,21
504,"WKWMO CO.","7258 XLLSTA ST.","30318","Atlanta","GA",33.786805,-84.437,25,3,1,6
505,"XSWCH CO.","6018 KFIKDT ST.","30364","Atlanta","GA",33.844371,-84.47405,34,1,2,24
506,"XVYRD CO.","6552 YJYJWW ST.","30337","Atlanta","GA",33.646984,-84.4538,34,3,2,17
507,"JKJFD CO.","2486 CWXXXT ST.","30341","Atlanta","GA",33.888102,-84.29321,20,0,2,4
508,"RHPPC CO.","8135 OSCVZH ST.","30310","Atlanta","GA",33.727807,-84.41983,31,5,3,2
509,"ORCNC CO.","4979 AXLQHE ST.","30308","Atlanta","GA",33.771755,-84.38065,44,4,2,3
510,"BRQYU CO.","5727 LAATAL ST.","30375","Atlanta","GA",33.844371,-84.47405,34,3,2,13
511,"WDGXN CO.","8660 USRALE ST.","30355","Atlanta","GA",33.844371,-84.47405,14,4,2,15
512,"PZITT CO.","7437 FSVNZK ST.","30336","Atlanta","GA",33.744007,-84.56032,7,5,3,22
513,"GMTJI CO.","4520 DWLPSQ ST.","30345","Atlanta","GA",33.851736,-84.28412,17,4,2,22
514,"MKBGA CO.","7319 GJILSY ST.","30346","Atlanta","GA",33.926753,-84.33877,32,3,2,1
515,"AHYEL CO.","8239 TNSBEM ST.","31119","Atlanta","GA",33.891251,-84.07456,50,0,2,23
516,"QYFML CO.","6584 WJZGOB ST.","30369","Atlanta","GA",33.844371,-84.47405,30,8,1,25
517,"GVJBA CO.","8610 BIOTGE ST.","30375","Atlanta","GA",33.844371,-84.47405,38,3,3,0
518,"XDOCV CO.","135 KYUTLJ ST.","30310","Atlanta","GA",33.727807,-84.41983,13,2,3,22
519,"ACRGM CO.","8805 LEVMCS ST.","31193","Atlanta","GA",33.844371,-84.47405,8,3,3,14
520,"FZZDU CO.","4816 BCIRQP ST.","30356","Atlanta","GA",33.891251,-84.07456,17,2,3,5
521,"QSSWR CO.","252 BAYQPQ ST.","31192","Atlanta","GA",33.844371,-84.47405,8,1,2,13
522,"BIPFV CO.","9790 RCEIAC ST.","30389","Atlanta","GA",33.844371,-84.47405,42,3,3,0
523,"QPCCM CO.","4834 JNZGGX ST.","30374","Atlanta","GA",33.844371,-84.47405,5,4,1,9
524,"JBNDE CO.","5736 CGANVG ST.","31199","Atlanta","GA",33.844371,-84.47405,37,1,1,19
525,"SYQRZ CO.","5319 ZLGCRJ ST.","30339","Atlanta","GA",33.87507,-84.46615,27,1,2,3
526,"MFJPV CO.","5924 RZJMJD ST.","30345","Atlanta","GA",33.851736,-84.28412,8,2,3,21
527,"CMKZJ CO.","4751 LCODEO ST.","31119","Atlanta","GA",33.891251,-84.07456,7,6,3,17
528,"OZVGG CO.","7911 ZCSVSR ST.","30394","Atlanta","GA",33.844371,-84.47405,43,5,3,15
529,"CTIBX CO.","2103 FNKJIN ST.","30381","Atlanta","GA",33.844371,-84.47405,36,2,3,10
530,"VZKQS CO.","5011 QSKWMI ST.","30389","Atlanta","GA",33.844371,-84.47405,44,5,2,29
531,"XPIDJ CO.","6039 QZASZI ST.","30396","Atlanta","GA",33.844371,-84.47405,27,3,1,1
532,"UOEWM CO.","1289 JAYEVM ST.","30348","Atlanta","GA",33.844371,-84.47405,30,6,3,1
533,"GLPJQ CO.","9259 XTWQHR ST.","30325","Atlanta","GA",33.844371,-84.47405,21,1,3,27
534,"BHVPW CO.","2065 WJGUAP ST.","30387","Atlanta","GA",33.844371,-84.47405,5,1,3,1
535,"LIVMC CO.","8219 KAMACD ST.","30387","Atlanta","GA",33.844371,-84.47405,8,2,2,25
536,"FEGQK CO.","2746 BUKUQA ST.","31150","Atlanta","GA",33.844371,-84.47405,12,4,1,26
537,"OXAVV CO.","8863 LAKXBG ST.","31146","Atlanta","GA",33.891251,-84.07456,7,1,2,27
538,"XRMJX CO.","7483 RMHQYH ST.","39901","Atlanta","GA",33.891251,-84.07456,23,3,3,16
539,"PBGHD CO.","5836 INOTTZ ST.","30381","Atlanta","GA",33.844371,-84.47405,8,3,2,20
540,"XUWAQ CO.","9159 VXHTWW ST.","30365","Atlanta","GA",33.844371,-84.47405,45,3,2,16
541,"LISYM CO.","152 SMQAYV ST.","30376","Atlanta","GA",33.844371,-84.47405,37,5,3,26
542,"PWOTT CO.","5242 MEXIWL ST.","30313","Atlanta","GA",33.761223,-84.39599,20,7,1,4
543,"UUYQI CO.","1957 JIRNXR ST.","30320","Atlanta","GA",33.656824,-84.423648,34,3,2,28
544,"VQGAG CO.","9340 FABKBN ST.","30314","Atlanta","GA",33.758056,-84.42268,10,7,3,25
545,"JVUSV CO.","2013 GHMEWG ST.","30307","Atlanta","GA",33.768205,-84.33786,50,2,2,30
546,"ZVDMK CO.","5738 QTJBQM ST.","30304","Atlanta","GA",33.848196,-84.429296,21,3,1,16
547,"RXPOM CO.","5023 TYBLUD ST.","30394","Atlanta","GA",33.844371,-84.47405,14,4,2,26
548,"UMPMP CO.","3602 VXKZAC ST.","30326","Atlanta","GA",33.849853,-84.3606,40,1,1,23
549,"ZWQRX CO.","7822 FBHWZT ST.","30303","Atlanta","GA",33.752856,-84.39013,47,1,3,26
550,"WFWME CO.","4692 JGDZEN ST.","30316","Atlanta","GA",33.729506,-84.34087,8,3,3,2
551,"FAVOT CO.","4910 EDFSMH ST.","31150","Atlanta","GA",33.844371,-84.47405,14,3,1,29
552,"ZNYKP CO.","2011 HZIXCQ ST.","30342","Atlanta","GA",33.879003,-84.37203,17,5,3,9
553,"CRQEE CO.","5692 BVLFMX ST.","31196","Atlanta","GA",33.844371,-84.47405,10,3,1,27
554,"CCOUG CO.","9176 CCLGWQ ST.","30381","Atlanta","GA",33.844371,-84.47405,23,3,1,6
555,"UFZGI CO.","259 ZZXMBD ST.","30354","Atlanta","GA",33.658834,-84.39682,27,1,3,29
556,"JGZIH CO.","759 AIFEEZ ST.","30347","Atlanta","GA",33.844371,-84.47405,24,4,1,15
557,"ZRNDJ CO.","9952 LRFLGO ST.","30386","Atlanta","GA",33.844371,-84.47405,11,1,3,14
558,"JIGPM CO.","7110 OQAQDK ST.","30323","Atlanta","GA",33.844371,-84.47405,50,4,1,22
559,"HNXCR CO.","549 SIKHIG ST.","30378","Atlanta","GA",33.844371,-84.47405,34,4,3,9
560,"XNIVL CO.","8550 VKFXVP ST.","30364","Atlanta","GA",33.844371,-84.47405,44,2,3,19
561,"GNOZA CO.","980 DLUCOK ST.","30387","Atlanta","GA",33.844371,-84.47405,31,2,1,18
562,"KBQUG CO.","6011 ZEHZRY ST.","30309","Atlanta","GA",33.794055,-84.38525,44,5,1,9
563,"GOJZX CO.","3036 QSYPTL ST.","31141","Atlanta","GA",33.891251,-84.07456,47,1,1,10
564,"HSXES CO.","8410 SPKXIL ST.","30349","Atlanta","GA",33.61541,-84.49033,37,5,3,11
565,"ICCUT CO.","9248 JDIFJG ST.","30312","Atlanta","GA",33.745739,-84.3764,15,2,2,6
566,"AGXJO CO.","2776 HYYNSY ST.","30381","Atlanta","GA",33.844371,-84.47405,20,3,3,29
567,"MFEBZ CO.","7457 KGVODC ST.","31193","Atlanta","GA",33.844371,-84.47405,45,3,2,23
568,"AFFYF CO.","1694 LDKQPP ST.","30341","Atlanta","GA",33.888102,-84.29321,17,6,1,0
569,"QAHAR CO.","9951 UUBBJI ST.","30363","Atlanta","GA",33.844371,-84.47405,30,6,3,7
570,"NYNDA CO.","9836 SEYWAM ST.","30371","Atlanta","GA",33.844371,-84.47405,26,2,2,22
571,"MJMUF CO.","8736 HWRLCR ST.","31196","Atlanta","GA",33.844371,-84.47405,40,3,3,26
572,"OBJMD CO.","3753 VZFFYT ST.","30363","Atlanta","GA",33.844371,-84.47405,34,3,1,2
573,"FSYSF CO.","8332 YFATBG ST.","30398","Atlanta","GA",33.844371,-84.47405,41,3,1,25
574,"YKADV CO.","2618 WMDCJW ST.","30347","Atlanta","GA",33.844371,-84.47405,22,4,1,30
575,"FNDXW CO.","2173 OEAPGM ST.","31107","Atlanta","GA",33.844371,-84.47405,12,1,3,21
576,"LSZEI CO.","3739 OTOOAK ST.","30384","Atlanta","GA",33.844371,-84.47405,46,4,3,12
577,"IXUTE CO.","6142 CZUMRH ST.","30336","Atlanta","GA",33.744007,-84.56032,41,0,2,23
578,"HGPJC CO.","301 USYCXW ST.","30357","Atlanta","GA",33.844371,-84.47405,42,5,1,20
579,"AEDWV CO.","9895 VWYIGU ST.","30356","Atlanta","GA",33.891251,-84.07456,15,3,2,12
580,"VHSYY CO.","3907 XUETOB ST.","30312","Atlanta","GA",33.745739,-84.3764,45,1,1,9
581,"TTTKN CO.","3678 CQFASF ST.","30356","Atlanta","GA",33.891251,-84.07456,12,5,1,29
582,"FCVOB CO.","3829 ZSUFRR ST.","30381","Atlanta","GA",33.844371,-84.47405,38,7,3,10
583,"OZBOC CO.","514 UUPIXG ST.","30396","Atlanta","GA",33.844371,-84.47405,29,4,2,14
584,"DEMQS CO.","631 BJACAO ST.","31195","Atlanta","GA",33.844371,-84.47405,10,4,3,8
585,"LSUQK CO.","5673 JDLSRN ST.","30315","Atlanta","GA",33.709595,-84.38365,14,4,2,23
586,"FQFRS CO.","8765 SLIFUJ ST.","30330","Atlanta","GA",33.707107,-84.432127,8,3,1,12
587,"KCMXL CO.","9630 UTGLLC ST.","30378","Atlanta","GA",33.844371,-84.47405,33,0,1,28
588,"AZBVA CO.","6569 FNDQSM ST.","30338","Atlanta","GA",33.942751,-84.31769,16,3,3,8
589,"ZCVSD CO.","1069 XLYMOH ST.","31199","Atlanta","GA",33.844371,-84.47405,34,4,3,19
590,"YUWKK CO.","1941 HXXDUY ST.","30350","Atlanta","GA",33.97285,-84.32775,17,3,2,23
591,"YKLKZ CO.","3908 NJIHCH ST.","31191","Atlanta","GA",33.844371,-84.47405,15,4,3,6
592,"IIESM CO.","7316 CCUCDD ST.","30365","Atlanta","GA",33.844371,-84.47405,22,1,1,29
593,"MUQPO CO.","9750 LXKGEV ST.","30398","Atlanta","GA",33.844371,-84.47405,30,7,1,8
594,"GRFPI CO.","1541 QWUDJD ST.","30327","Atlanta","GA",33.86427,-84.41972,50,1,2,8
595,"AXPUP CO.","6230 VSLTNO ST.","30381","Atlanta","GA",33.844371,-84.47405,20,2,1,4
596,"CKXVN CO.","5306 ZVMTQN ST.","31193","Atlanta","GA",33.844371,-84.47405,50,4,3,29
597,"KJHMY CO.","3381 VGRTXI ST.","30345","Atlanta","GA",33.851736,-84.28412,30,1,3,3
598,"BTNRY CO.","7153 GLKRQH ST.","30318","Atlanta","GA",33.786805,-84.437,49,2,2,29
599,"OEOOF CO.","2885 YJMULS ST.","30398","Atlanta","GA",33.844371,-84.47405,39,2,3,12
600,"UEDHE CO.","3804 PNAIRR ST.","30379","Atlanta","GA",33.844371,-84.47405,19,2,3,1
601,"YEOSK CO.","4963 YYPUEN ST.","30398","Atlanta","GA",33.844371,-84.47405,8,2,2,15
602,"OVBXL CO.","912 EFRBUN ST.","30385","Atlanta","GA",33.844371,-84.47405,40,2,3,29
603,"EZCSW CO.","4697 DSZMYP ST.","30305","Atlanta","GA",33.830054,-84.38472,49,1,2,16
604,"AKRUL CO.","2906 QVYHGO ST.","30313","Atlanta","GA",33.761223,-84.39599,10,4,3,20
605,"LOMWI CO.","6058 YTOVDW ST.","30376","Atlanta","GA",33.844371,-84.47405,5,3,1,19
606,"VCANG CO.","4197 JFKOHI ST.","30361","Atlanta","GA",33.844371,-84.47405,48,3,3,15
607,"OBUYB CO.","764 OFPFHZ ST.","31199","Atlanta","GA",33.844371,-84.47405,24,3,2,11
608,"XVQIH CO.","7361 OBQFYL ST.","31193","Atlanta","GA",33.844371,-84.47405,44,0,3,20
609,"TSIIM CO.","6154 OKFXXN ST.","30338","Atlanta","GA",33.942751,-84.31769,6,2,2,27
610,"YCAHN CO.","8522 TUYPMV ST.","30392","Atlanta","GA",33.844371,-84.47405,22,0,1,26
611,"HRUCW CO.","1564 WLHWNY ST.","30321","Atlanta","GA",33.844371,-84.47405,44,6,3,24
612,"PJPMX CO.","6919 RLZEFB ST.","30370","Atlanta","GA",33.844371,-84.47405,48,6,2,27
613,"JOXCM CO.","2821 FFVMHI ST.","30343","Atlanta","GA",33.844371,-84.47405,47,2,1,22
614,"BCFBM CO.","7548 NYJNFE ST.","30318","Atlanta","GA",33.786805,-84.437,23,5,3,9
615,"QJLGN CO.","5853 GYJOBT ST.","30304","Atlanta","GA",33.848196,-84.429296,20,5,2,26
616,"WYOLY CO.","5732 CRAYLB ST.","30316","Atlanta","GA",33.729506,-84.34087,26,4,1,10
617,"XJUQV CO.","7061 WGAPKW ST.","30308","Atlanta","GA",33.771755,-84.38065,21,2,3,13
618,"TZNGW CO.","792 EKXDIR ST.","30345","Atlanta","GA",33.851736,-84.28412,14,2,1,25
619,"LSWTD CO.","7793 PRDQRJ ST.","31126","Atlanta","GA",33.844371,-84.47405,47,0,1,22
620,"ISNAS CO.","5519 DOWKST ST.","30389","Atlanta","GA",33.844371,-84.47405,5,2,3,11
621,"FJOFN CO.","5987 HMCADG ST.","30315","Atlanta","GA",33.709595,-84.38365,42,2,2,26
622,"SWKOQ CO.","1001 HLGRBA ST.","30321","Atlanta","GA",33.844371,-84.47405,48,3,2,24
623,"KWLHL CO.","3511 ETHUDG ST.","30398","Atlanta","GA",33.844371,-84.47405,8,0,3,0
624,"AYJKL CO.","8951 KAUWWJ ST.","30306","Atlanta","GA",33.786755,-84.35149,45,2,2,22
625,"IFSDW CO.","7108 ZDZSWX ST.","30334","Atlanta","GA",33.702657,-84.439127,7,4,3,23
626,"JJTFL CO.","4790 TDPOHZ ST.","30311","Atlanta","GA",33.724907,-84.47131,27,0,1,25
627,"UGBSS CO.","7958 SXETDM ST.","31120","Atlanta","GA",33.74,-84.38,27,4,1,8
628,"EREZS CO.","7504 YGDDNR ST.","30369","Atlanta","GA",33.844371,-84.47405,44,2,1,11
629,"BJANW CO.","6139 DYSAOB ST.","30390","Atlanta","GA",33.844371,-84.47405,25,2,3,27
630,"XDUST CO.","8955 CKWTKA ST.","30388","Atlanta","GA",33.844371,-84.47405,17,0,3,12
631,"DSCQP CO.","640 QDOJHI ST.","31141","Atlanta","GA",33.891251,-84.07456,41,2,2,21
632,"CKZSM CO.","634 UTVZPG ST.","31119","Atlanta","GA",33.891251,-84.07456,16,4,2,12
633,"INYRK CO.","2376 NZJQMU ST.","31145","Atlanta","GA",33.891251,-84.07456,23,1,1,14
634,"UDZCJ CO.","6779 PRHHFM ST.","30341","Atlanta","GA",33.888102,-84.29321,19,4,1,28
635,"NPBGI CO.","1261 FUMJDE ST.","30366","Atlanta","GA",33.891251,-84.07456,6,4,2,16
636,"NYGBR CO.","8423 FMMGJW ST.","30365","Atlanta","GA",33.844371,-84.47405,44,4,1,24
637,"STUCM CO.","5459 FWHZWQ ST.","30342","Atlanta","GA",33.879003,-84.37203,38,4,3,13
638,"EZEPN CO.","5137 DQUNQS ST.","30320","Atlanta","GA",33.656824,-84.423648,23,2,3,23
639,"WJQYV CO.","4211 BEJRKQ ST.","30336","Atlanta","GA",33.744007,-84.56032,42,5,1,18
640,"EEKFC CO.","8152 GXOOGM ST.","30314","Atlanta","GA",33.758056,-84.42268,20,3,1,18
641,"HAHGL CO.","4070 YSWLJU ST.","30317","Atlanta","GA",33.750005,-84.31854,37,2,1,13
642,"RQJMS CO.","2997 DMDYJD ST.","31199","Atlanta","GA",33.844371,-84.47405,26,3,3,22
643,"NNSYN CO.","9869 IBYMQQ ST.","31141","Atlanta","GA",33.891251,-84.07456,46,3,3,10
644,"MBIMC CO.","3974 CIRDTJ ST.","30389","Atlanta","GA",33.844371,-84.47405,46,4,1,30
645,"FAPZV CO.","1925 XBLQWV ST.","30341","Atlanta","GA",33.888102,-84.29321,5,7,2,2
646,"OSLUW CO.","6889 AACVNX ST.","30353","Atlanta","GA",33.844371,-84.47405,11,6,1,12
647,"LLUZN CO.","9249 RPFVXD ST.","30322","Atlanta","GA",33.793754,-84.3238,43,3,2,29
648,"KINTO CO.","7229 TZIWHN ST.","30357","Atlanta","GA",33.844371,-84.47405,47,3,1,18
649,"QXKVD CO.","994 GLVURV ST.","31131","Atlanta","GA",33.844371,-84.47405,10,4,1,3
650,"IKWCU CO.","2331 YROJRK ST.","30381","Atlanta","GA",33.844371,-84.47405,14,1,2,8
651,"PGWUL CO.","2201 FPQZKB ST.","31107","Atlanta","GA",33.844371,-84.47405,8,2,2,21
652,"XRUIZ CO.","8316 PLJUSL ST.","30350","Atlanta","GA",33.97285,-84.32775,37,2,2,21
653,"TCNIW CO.","1238 KKHBOK ST.","30315","Atlanta","GA",33.709595,-84.38365,32,2,2,10
654,"JNKBO CO.","4622 IFBQBB ST.","30362","Atlanta","GA",33.891251,-84.07456,34,1,2,8
655,"FAAVA CO.","970 DIPSGZ ST.","30377","Atlanta","GA",33.844371,-84.47405,23,2,1,19
656,"WPFSX CO.","6404 IHPZYF ST.","30349","Atlanta","GA",33.61541,-84.49033,32,1,2,24
657,"IHFNY CO.","9808 KVABAO ST.","30318","Atlanta","GA",33.786805,-84.437,40,6,1,28
658,"GNSEY CO.","7876 HKJXID ST.","30339","Atlanta","GA",33.87507,-84.46615,43,2,1,8
659,"ZGHYG CO.","2861 WFBBRK ST.","30318","Atlanta","GA",33.786805,-84.437,11,3,2,0
660,"EXXJN CO.","3849 XKZNET ST.","30337","Atlanta","GA",33.646984,-84.4538,5,2,1,9
661,"PFUJQ CO.","8701 XMTABV ST.","30357","Atlanta","GA",33.844371,-84.47405,19,4,3,13
662,"TPTPG CO.","7867 QIJDGV ST.","31150","Atlanta","GA",33.844371,-84.47405,41,3,2,13
663,"WZPPY CO.","8929 PKFESZ ST.","30354","Atlanta","GA",33.658834,-84.39682,39,4,3,29
664,"BPMUT CO.","8279 YLOCAS ST.","30396","Atlanta","GA",33.844371,-84.47405,44,4,2,26
665,"BYDQK CO.","7613 MKCPOK ST.","30381","Atlanta","GA",33.844371,-84.47405,20,4,1,19
666,"TIVGU CO.","4934 XRNGIT ST.","31145","Atlanta","GA",33.891251,-84.07456,39,4,1,22
667,"VNFFK CO.","5657 LVOTTL ST.","31197","Atlanta","GA",33.844371,-84.47405,39,5,2,19
668,"FUFGQ CO.","9121 UZVZON ST.","31107","Atlanta","GA",33.844371,-84.47405,20,1,2,24
669,"HEDML CO.","6611 NOKKXK ST.","30361","Atlanta","GA",33.844371,-84.47405,28,2,3,28
670,"VRHZR CO.","9690 JWVKOS ST.","30344","Atlanta","GA",33.676258,-84.44977,24,3,1,2
671,"XEDYV CO.","7478 TLQMUT ST.","30333","Atlanta","GA",33.891251,-84.07456,47,3,2,7
672,"ULNWG CO.","39 IPXPJJ ST.","30326","Atlanta","GA",33.849853,-84.3606,11,4,1,1
673,"HYBQY CO.","2257 PQDNVV ST.","30380","Atlanta","GA",33.844371,-84.47405,35,4,3,8
674,"QJXUB CO.","4930 GLTGKZ ST.","30313","Atlanta","GA",33.761223,-84.39599,39,4,1,24
675,"FLUBW CO.","6715 KJYEPW ST.","30312","Atlanta","GA",33.745739,-84.3764,17,1,2,11
676,"SCQBC CO.","2335 KCFHLR ST.","30354","Atlanta","GA",33.658834,-84.39682,18,3,3,5
677,"TVTZG CO.","5540 XQHOKF ST.","30377","Atlanta","GA",33.844371,-84.47405,38,3,1,3
678,"UXOEY CO.","6588 NPFQXL ST.","31141","Atlanta","GA",33.891251,-84.07456,36,2,1,9
679,"SRLJG CO.","4749 XSVIFR ST.","39901","Atlanta","GA",33.891251,-84.07456,39,4,2,2
680,"XJLHG CO.","6959 LKHWDH ST.","30331","Atlanta","GA",33.715558,-84.52728,10,2,2,3
681,"YEPDZ CO.","1196 ERDAMV ST.","30362","Atlanta","GA",33.891251,-84.07456,27,5,2,19
682,"QKXEG CO.","2052 AVKHVY ST.","30350","Atlanta","GA",33.97285,-84.32775,47,3,3,29
683,"JNWVE CO.","7441 VUNEBK ST.","30386","Atlanta","GA",33.844371,-84.47405,31,0,1,5
684,"QAFXC CO.","1640 NJDKOX ST.","30368","Atlanta","GA",33.844371,-84.47405,18,4,1,29
685,"IKLGC CO.","6015 CTASOF ST.","30392","Atlanta","GA",33.844371,-84.47405,26,2,3,14
686,"ZGDMD CO.","8571 AOKMLH ST.","31195","Atlanta","GA",33.844371,-84.47405,41,3,3,21
687,"NINTW CO.","6071 XNDKJP ST.","30388","Atlanta","GA",33.844371,-84.47405,39,6,3,16
688,"MILLR CO.","1511 HKEKXG ST.","30386","Atlanta","GA",33.844371,-84.47405,15,4,3,5
689,"RFMQP CO.","8627 BTDATX ST.","30354","Atlanta","GA",33.658834,-84.39682,30,1,1,23
690,"VTNOP CO.","9512 XTORCI ST.","30360","Atlanta","GA",33.934536,-84.27215,7,10,1,19
691,"BVARG CO.","4214 QKHSDB ST.","30305","Atlanta","GA",33.830054,-84.38472,10,6,2,8
692,"PJSSN CO.","7766 FHOOUY ST.","30315","Atlanta","GA",33.709595,-84.38365,27,5,2,4
693,"SXBZL CO.","8468 UFXTXZ ST.","30308","Atlanta","GA",33.771755,-84.38065,34,5,1,27
694,"WWKTA CO.","5539 ETBACR ST.","30347","Atlanta","GA",33.844371,-84.47405,27,4,3,14
695,"QFISV CO.","7417 NVCYPD ST.","31136","Atlanta","GA",33.72,-84.58,26,7,2,0
696,"JUSPF CO.","9275 ZSKEIS ST.","30385","Atlanta","GA",33.844371,-84.47405,11,3,1,18
697,"XSIZQ CO.","428 QZHPAF ST.","30364","Atlanta","GA",33.844371,-84.47405,44,1,1,11
698,"QYYTK CO.","6504 QPKAFJ ST.","30336","Atlanta","GA",33.744007,-84.56032,48,5,1,5
699,"LGGYZ CO.","1334 OLHWUB ST.","30361","Atlanta","GA",33.844371,-84.47405,18,4,2,13
700,"ZVQKT CO.","7750 XFDRNS ST.","30350","Atlanta","GA",33.97285,-84.32775,50,2,3,11
701,"MKPOE CO.","8798 QSOSAC ST.","30371","Atlanta","GA",33.844371,-84.47405,31,3,1,6
702,"GAZEM CO.","1124 ILFDWB ST.","30377","Atlanta","GA",33.844371,-84.47405,42,3,1,21
703,"APQPO CO.","4664 IVNSQU ST.","30312","Atlanta","GA",33.745739,-84.3764,41,4,1,21
704,"MSSLE CO.","4855 SFZKXM ST.","30324","Atlanta","GA",33.818304,-84.35779,21,2,3,8
705,"QVUON CO.","1036 AFISCH ST.","30311","Atlanta","GA",33.724907,-84.47131,13,3,2,17
706,"GZCWE CO.","5940 INKZNH ST.","30398","Atlanta","GA",33.844371,-84.47405,8,7,2,6
707,"MHFBA CO.","4091 GOCIOS ST.","30355","Atlanta","GA",33.844371,-84.47405,37,4,1,19
708,"NSQEM CO.","6955 WOLHLF ST.","30326","Atlanta","GA",33.849853,-84.3606,9,3,1,25
709,"XSSYE CO.","327 MTVOWU ST.","30321","Atlanta","GA",33.844371,-84.47405,42,2,1,22
710,"RFVSA CO.","6314 YJHHDZ ST.","30371","Atlanta","GA",33.844371,-84.47405,50,1,2,6
711,"NCKTA CO.","1730 LEIHUF ST.","30394","Atlanta","GA",33.844371,-84.47405,35,0,3,27
712,"SKQEM CO.","724 YMPKHN ST.","31119","Atlanta","GA",33.891251,-84.07456,24,5,1,8
713,"CDMVJ CO.","2899 HXRUMJ ST.","30380","Atlanta","GA",33.844371,-84.47405,40,1,3,23
714,"OPXPE CO.","1140 MCIXUT ST.","30334","Atlanta","GA",33.702657,-84.439127,45,1,2,17
715,"ECZRS CO.","1302 HTMLEM ST.","30374","Atlanta","GA",33.844371,-84.47405,22,2,3,29
716,"IIMTB CO.","6312 EHWOET ST.","31131","Atlanta","GA",33.844371,-84.47405,48,2,2,21
717,"KWGZZ CO.","9271 ZRAQKK ST.","30360","Atlanta","GA",33.934536,-84.27215,44,3,2,8
718,"HTGPQ CO.","2905 PENNPX ST.","30309","Atlanta","GA",33.794055,-84.38525,22,2,1,26
719,"EQWHR CO.","6496 ODKZNH ST.","30360","Atlanta","GA",33.934536,-84.27215,19,6,1,1
720,"RPBPT CO.","4630 PRQDGT ST.","30319","Atlanta","GA",33.872053,-84.33611,20,4,2,23
721,"RYRPN CO.","8796 PPUWUT ST.","30358","Atlanta","GA",33.998151,-84.34112,33,3,3,14
722,"SSOBC CO.","9753 LKCWHE ST.","30345","Atlanta","GA",33.851736,-84.28412,14,3,2,15
723,"CHRCI CO.","9526 EITFNS ST.","30385","Atlanta","GA",33.844371,-84.47405,36,7,1,1
724,"CAFBJ CO.","9705 ZGVAOE ST.","30334","Atlanta","GA",33.702657,-84.439127,29,4,2,26
725,"WUJLI CO.","2651 XZSHER ST.","30363","Atlanta","GA",33.844371,-84.47405,17,3,3,13
726,"FFTIA CO.","1441 KDDNNY ST.","30339","Atlanta","GA",33.87507,-84.46615,38,2,2,22
727,"UUQBC CO.","9439 UQRNYR ST.","30357","Atlanta","GA",33.844371,-84.47405,39,3,1,0
728,"AMQHZ CO.","8707 FHSQOH ST.","30376","Atlanta","GA",33.844371,-84.47405,22,2,1,26
729,"VAVTL CO.","2888 VEWIMJ ST.","30388","Atlanta","GA",33.844371,-84.47405,44,5,1,27
730,"BPHTQ CO.","9919 XWJFQF ST.","31196","Atlanta","GA",33.844371,-84.47405,32,2,1,18
731,"AUUJU CO.","8099 RGMJST ST.","30363","Atlanta","GA",33.844371,-84.47405,7,2,3,19
732,"RVJPQ CO.","752 JOCTSV ST.","30313","Atlanta","GA",33.761223,-84.39599,18,1,1,21
733,"WSZQD CO.","8431 CZJBCZ ST.","30341","Atlanta","GA",33.888102,-84.29321,23,0,3,28
734,"OKDEN CO.","9965 FVOVEF ST.","30379","Atlanta","GA",33.844371,-84.47405,26,1,3,28
735,"AGVQQ CO.","5432 XFMMUX ST.","30390","Atlanta","GA",33.844371,-84.47405,13,2,2,26
736,"LIOLS CO.","1701 NSFSDP ST.","31145","Atlanta","GA",33.891251,-84.07456,6,3,3,6
737,"SWRJF CO.","7691 NDWQGA ST.","30333","Atlanta","GA",33.891251,-84.07456,5,5,1,4
738,"KOHSR CO.","786 EISUSY ST.","30361","Atlanta","GA",33.844371,-84.47405,6,3,2,20
739,"OPCIZ CO.","2251 QKSNXN ST.","30392","Atlanta","GA",33.844371,-84.47405,49,4,1,17
740,"HWTMJ CO.","8289 DLQOYG ST.","30381","Atlanta","GA",33.844371,-84.47405,29,2,2,16
741,"ALCJG CO.","8700 JVWLAI ST.","31126","Atlanta","GA",33.844371,-84.47405,23,1,1,25
742,"GJDUS CO.","811 BBQKQC ST.","31156","Atlanta","GA",33.844371,-84.47405,31,3,3,19
743,"AIEBV CO.","4400 JAGGMO ST.","30385","Atlanta","GA",33.844371,-84.47405,50,0,2,26
744,"OETXH CO.","4880 ITMDZK ST.","30355","Atlanta","GA",33.844371,-84.47405,35,3,1,25
745,"BLMPU CO.","8692 QETWZR ST.","30306","Atlanta","GA",33.786755,-84.35149,33,3,3,11
746,"TUDZJ CO.","6227 CFCRKA ST.","30345","Atlanta","GA",33.851736,-84.28412,25,5,3,23
747,"IQWUE CO.","1474 AVJCFL ST.","30326","Atlanta","GA",33.849853,-84.3606,27,4,1,19
748,"GLQKJ CO.","8523 GJHQHV ST.","30349","Atlanta","GA",33.61541,-84.49033,18,3,1,29
749,"YJNYS CO.","1907 DQOQGS ST.","30325","Atlanta","GA",33.844371,-84.47405,45,2,2,13
750,"CGSEO CO.","5096 QRMLXF ST.","30317","Atlanta","GA",33.750005,-84.31854,47,1,3,10
751,"KPTKK CO.","1877 PGQCWH ST.","30320","Atlanta","GA",33.656824,-84.423648,46,4,1,5
752,"GYNGQ CO.","5351 XFYFZM ST.","39901","Atlanta","GA",33.891251,-84.07456,38,6,3,9
753,"FTRCJ CO.","8898 KXVYRM ST.","30306","Atlanta","GA",33.786755,-84.35149,28,1,1,11
754,"HGISL CO.","2992 GCNHNC ST.","30362","Atlanta","GA",33.891251,-84.07456,24,2,1,7
755,"DQJDJ CO.","4106 NIMTHZ ST.","30333","Atlanta","GA",33.891251,-84.07456,42,7,1,6
756,"NQLDU CO.","3375 MNXWSR ST.","31197","Atlanta","GA",33.844371,-84.47405,16,3,3,15
757,"SQHDO CO.","7824 ONELXR ST.","30386","Atlanta","GA",33.844371,-84.47405,7,5,3,12
758,"DCFMW CO.","2408 ULONQI ST.","31199","Atlanta","GA",33.844371,-84.47405,28,2,3,21
759,"ZYQQK CO.","4539 YYCDIH ST.","39901","Atlanta","GA",33.891251,-84.07456,47,2,3,10
760,"TSUDO CO.","9777 IMWPHI ST.","31106","Atlanta","GA",33.844371,-84.47405,6,4,2,2
761,"XYQJR CO.","443 ADRRPF ST.","30398","Atlanta","GA",33.844371,-84.47405,46,5,2,15
762,"RCBON CO.","5752 JVHCRK ST.","30305","Atlanta","GA",33.830054,-84.38472,36,4,2,11
763,"WIGXE CO.","5424 HZPQUZ ST.","31156","Atlanta","GA",33.844371,-84.47405,10,3,3,0
764,"QTMYO CO.","4980 CETGKG ST.","30313","Atlanta","GA",33.761223,-84.39599,33,1,1,4
765,"UZCCA CO.","2599 VWDENK ST.","30330","Atlanta","GA",33.707107,-84.432127,7,3,3,28
766,"DKAHS CO.","8416 RWXDFC ST.","30336","Atlanta","GA",33.744007,-84.56032,36,5,2,4
767,"MPRYX CO.","3940 VROWKJ ST.","30357","Atlanta","GA",33.844371,-84.47405,22,2,1,12
768,"LAPCH CO.","7565 ZNAFXT ST.","30368","Atlanta","GA",33.844371,-84.47405,35,3,3,1
769,"OYWZV CO.","9053 DECKNU ST.","30309","Atlanta","GA",33.794055,-84.38525,19,3,2,11
770,"MTHKR CO.","9513 GQMKSX ST.","30320","Atlanta","GA",33.656824,-84.423648,29,2,3,5
771,"BTSXR CO.","4656 UZFFWW ST.","30341","Atlanta","GA",33.888102,-84.29321,37,3,2,10
772,"BEOHV CO.","2824 IQXOEW ST.","30345","Atlanta","GA",33.851736,-84.28412,37,3,1,23
773,"IFSKG CO.","9463 ODJXQH ST.","30881","Atlanta","GA",33.793006,-84.504081,47,4,2,25
774,"YCSAY CO.","6969 INOEOM ST.","30375","Atlanta","GA",33.844371,-84.47405,39,1,3,26
775,"CBJXY CO.","7961 YKCRMX ST.","30375","Atlanta","GA",33.844371,-84.47405,8,5,1,24
776,"HPGTR CO.","234 HUSHHF ST.","30327","Atlanta","GA",33.86427,-84.41972,43,9,1,26
777,"RMHEX CO.","772 OUGQKQ ST.","30343","Atlanta","GA",33.844371,-84.47405,34,3,3,15
778,"WLTEU CO.","2373 WFZNAL ST.","31145","Atlanta","GA",33.891251,-84.07456,11,3,3,4
779,"BCTRV CO.","6051 JBUZHS ST.","30330","Atlanta","GA",33.707107,-84.432127,14,3,2,21
780,"XDAZR CO.","8810 HLJJTW ST.","31197","Atlanta","GA",33.844371,-84.47405,40,2,1,4
781,"IDHWI CO.","6647 FVNPDG ST.","30303","Atlanta","GA",33.752856,-84.39013,23,4,1,7
782,"ROFPA CO.","7941 XHENHT ST.","30378","Atlanta","GA",33.844371,-84.47405,17,4,1,18
783,"ZANGX CO.","4155 UNCJPK ST.","30384","Atlanta","GA",33.844371,-84.47405,35,1,3,7
784,"LPQUX CO.","8584 IVRHMC ST.","30378","Atlanta","GA",33.844371,-84.47405,30,2,3,26
785,"WJPKA CO.","5297 OQGLMO ST.","30343","Atlanta","GA",33.844371,-84.47405,35,4,1,19
786,"QONWS CO.","533 BHCMBN ST.","30362","Atlanta","GA",33.891251,-84.07456,19,1,3,17
787,"MPYBM CO.","3142 SMMXQW ST.","30317","Atlanta","GA",33.750005,-84.31854,6,1,2,9
788,"LXEWL CO.","1333 FIDOZV ST.","30370","Atlanta","GA",33.844371,-84.47405,32,1,2,27
789,"BXTPC CO.","6289 WMTJVK ST.","30343","Atlanta","GA",33.844371,-84.47405,28,8,1,7
790,"TRGGY CO.","9734 RFFETC ST.","30386","Atlanta","GA",33.844371,-84.47405,36,2,3,7
791,"FXUUB CO.","5891 EEJGEV ST.","30881","Atlanta","GA",33.793006,-84.504081,33,3,1,2
792,"ETWFT CO.","6021 CTRWRQ ST.","30374","Atlanta","GA",33.844371,-84.47405,50,1,1,10
793,"VRIPR CO.","2449 FSMCUK ST.","30375","Atlanta","GA",33.844371,-84.47405,22,4,2,14
794,"UPQJX CO.","2366 VKHUSJ ST.","30365","Atlanta","GA",33.844371,-84.47405,33,3,2,7
795,"LGAMW CO.","4320 JIGKVD ST.","30315","Atlanta","GA",33.709595,-84.38365,7,2,2,10
796,"MHONV CO.","93 NEIINK ST.","30370","Atlanta","GA",33.844371,-84.47405,26,2,1,26
797,"HUXEV CO.","2943 WFACLU ST.","30340","Atlanta","GA",33.899381,-84.25367,34,1,1,1
798,"YGIWX CO.","7697 FDUHMW ST.","30389","Atlanta","GA",33.844371,-84.47405,35,4,1,8
799,"SJBFV CO.","9412 KCAXFN ST.","30339","Atlanta","GA",33.87507,-84.46615,20,2,3,13
800,"YZLBO CO.","8705 SPZGRN ST.","31126","Atlanta","GA",33.844371,-84.47405,20,1,3,21
801,"VMKLT CO.","8130 OVNWIM ST.","30332","Atlanta","GA",33.776305,-84.397976,7,5,3,9
802,"RUHDU CO.","4885 IBDGMG ST.","30318","Atlanta","GA",33.786805,-84.437,32,3,2,0
803,"QAEJJ CO.","1709 MOGYYY ST.","30311","Atlanta","GA",33.724907,-84.47131,34,1,2,13
804,"TQWCU CO.","1884 LPZZIE ST.","31126","Atlanta","GA",33.844371,-84.47405,46,3,1,2
805,"DRICQ CO.","8191 HAJLTV ST.","30346","Atlanta","GA",33.926753,-84.33877,22,1,1,23
806,"VJNKW CO.","3309 RNCWDI ST.","30342","Atlanta","GA",33.879003,-84.37203,29,4,3,13
807,"HRSWA CO.","2735 ITPRHW ST.","31141","Atlanta","GA",33.891251,-84.07456,40,3,1,21
808,"MUKIL CO.","9311 MXWKYQ ST.","31192","Atlanta","GA",33.844371,-84.47405,5,2,3,27
809,"BTPWC CO.","6447 VGXBYI ST.","30331","Atlanta","GA",33.715558,-84.52728,12,2,3,21
810,"UYWYL CO.","1161 TWFTZV ST.","30346","Atlanta","GA",33.926753,-84.33877,30,4,2,2
811,"UWWJJ CO.","7732 SURMHB ST.","30355","Atlanta","GA",33.844371,-84.47405,32,1,1,7
812,"BWQMJ CO.","2582 NOADPQ ST.","30371","Atlanta","GA",33.844371,-84.47405,20,1,1,8
813,"EBBXD CO.","6175 SJMJIY ST.","30328","Atlanta","GA",33.931746,-84.37817,32,2,1,8
814,"WFDNW CO.","1419 YPDKPK ST.","30329","Atlanta","GA",33.827554,-84.32355,22,1,3,23
815,"HTXVQ CO.","4840 DEMYIG ST.","30305","Atlanta","GA",33.830054,-84.38472,45,4,3,29
816,"ULSZJ CO.","5414 QFVVFX ST.","30311","Atlanta","GA",33.724907,-84.47131,37,3,3,20
817,"YMTFW CO.","5474 BETJEA ST.","30323","Atlanta","GA",33.844371,-84.47405,26,3,3,10
818,"YPJFB CO.","9689 ASGRUC ST.","30347","Atlanta","GA",33.844371,-84.47405,11,5,3,26
819,"JDRHB CO.","900 DEYBMR ST.","30394","Atlanta","GA",33.844371,-84.47405,41,1,2,2
820,"ZOXRJ CO.","5873 NVORCG ST.","30379","Atlanta","GA",33.844371,-84.47405,37,2,1,17
821,"ZNULN CO.","4326 AAKWOT ST.","30385","Atlanta","GA",33.844371,-84.47405,12,1,2,11
822,"AJRYO CO.","3172 UNXNRH ST.","30334","Atlanta","GA",33.702657,-84.439127,22,6,3,28
823,"SRWKL CO.","7547 ZVMEMO ST.","30337","Atlanta","GA",33.646984,-84.4538,40,0,3,8
824,"EAMZE CO.","6164 BBNDQS ST.","31146","Atlanta","GA",33.891251,-84.07456,30,3,2,18
825,"GNDOG CO.","4093 WHCOZC ST.","30317","Atlanta","GA",33.750005,-84.31854,13,2,2,14
826,"NIVSK CO.","3613 YLXSKK ST.","30320","Atlanta","GA",33.656824,-84.423648,37,4,3,5
827,"XEQOP CO.","8591 CPBXDG ST.","30370","Atlanta","GA",33.844371,-84.47405,49,4,2,11
828,"HPCDD CO.","9749 SFBEIL ST.","30349","Atlanta","GA",33.61541,-84.49033,47,2,1,2
829,"DSVIZ CO.","9489 EATYVZ ST.","30881","Atlanta","GA",33.793006,-84.504081,42,6,2,12
830,"ECXPI CO.","6744 QDQYCK ST.","30390","Atlanta","GA",33.844371,-84.47405,24,5,1,25
831,"VQZBA CO.","9592 WENCCJ ST.","30303","Atlanta","GA",33.752856,-84.39013,32,6,2,1
832,"SYPKP CO.","1830 UUZMIZ ST.","30357","Atlanta","GA",33.844371,-84.47405,11,2,3,27
833,"GYYVM CO.","8340 JMNPES ST.","30353","Atlanta","GA",33.844371,-84.47405,13,4,3,22
834,"OURVC CO.","3645 OXMFCP ST.","30360","Atlanta","GA",33.934536,-84.27215,14,1,1,0
835,"XOWJR CO.","859 BBFUYJ ST.","30301","Atlanta","GA",33.844371,-84.47405,50,3,1,1
836,"RIYPN CO.","42 KHCCEB ST.","30348","Atlanta","GA",33.844371,-84.47405,20,3,1,19
837,"ITHBM CO.","622 SXPSYF ST.","30387","Atlanta","GA",33.844371,-84.47405,50,3,3,14
838,"AWACN CO.","3914 TVIMKX ST.","30336","Atlanta","GA",33.744007,-84.56032,6,0,2,25
839,"JSPMW CO.","3775 OJVJPQ ST.","31126","Atlanta","GA",33.844371,-84.47405,30,5,1,3
840,"VSWSS CO.","7447 ZSKFET ST.","30311","Atlanta","GA",33.724907,-84.47131,39,4,3,3
841,"HMGKI CO.","1109 YSMPEG ST.","30333","Atlanta","GA",33.891251,-84.07456,12,3,2,23
842,"NPMAQ CO.","9217 LRSWGB ST.","31199","Atlanta","GA",33.844371,-84.47405,31,3,1,17
843,"DWEHC CO.","9198 EIRJXL ST.","31131","Atlanta","GA",33.844371,-84.47405,42,1,2,11
844,"COTTZ CO.","9983 CKFEQJ ST.","30337","Atlanta","GA",33.646984,-84.4538,38,4,2,17
845,"TJVID CO.","6671 EGJQOS ST.","31136","Atlanta","GA",33.72,-84.58,34,1,2,12
846,"MSZHO CO.","6571 UIPMAZ ST.","30355","Atlanta","GA",33.844371,-84.47405,41,2,2,30
847,"OBQKZ CO.","2278 GZBJAZ ST.","30316","Atlanta","GA",33.729506,-84.34087,38,3,3,18
848,"VTBGN CO.","9658 RLUJIP ST.","30339","Atlanta","GA",33.87507,-84.46615,37,2,3,27
849,"KAPKJ CO.","8258 WNUQWN ST.","31195","Atlanta","GA",33.844371,-84.47405,46,5,1,30
850,"GQJBN CO.","1112 QIAFHL ST.","30378","Atlanta","GA",33.844371,-84.47405,20,2,3,9
851,"ZDBFR CO.","3837 CXMCNQ ST.","30374","Atlanta","GA",33.844371,-84.47405,31,3,2,14
852,"DQRVY CO.","427 UYTGJJ ST.","31199","Atlanta","GA",33.844371,-84.47405,38,2,1,9
853,"PPENB CO.","4278 HEMLNM ST.","30390","Atlanta","GA",33.844371,-84.47405,10,6,2,3
854,"TUGAU CO.","1757 OXQYNB ST.","30351","Atlanta","GA",33.844371,-84.47405,44,4,3,10
855,"WLXHY CO.","4249 WCEAYG ST.","30323","Atlanta","GA",33.844371,-84.47405,37,3,1,23
856,"KZECI CO.","7615 OYAMZK ST.","30331","Atlanta","GA",33.715558,-84.52728,32,1,3,3
857,"RVXZW CO.","6499 HXJJZQ ST.","30386","Atlanta","GA",33.844371,-84.47405,37,1,3,1
858,"IOLHK CO.","8771 PSDZSI ST.","30320","Atlanta","GA",33.656824,-84.423648,17,5,2,1
859,"UGVIH CO.","5588 VQAHGB ST.","30343","Atlanta","GA",33.844371,-84.47405,22,3,1,7
860,"KUSUQ CO.","484 WTMDSG ST.","30330","Atlanta","GA",33.707107,-84.432127,33,6,2,3
861,"MAOJT CO.","6180 YLRIIF ST.","31107","Atlanta","GA",33.844371,-84.47405,43,1,1,12
862,"LMXBL CO.","5112 STRRXW ST.","30308","Atlanta","GA",33.771755,-84.38065,12,0,1,29
863,"TEZDS CO.","6167 ABUPBX ST.","30334","Atlanta","GA",33.702657,-84.439127,16,3,1,6
864,"RLHDL CO.","1194 BOYUKT ST.","30322","Atlanta","GA",33.793754,-84.3238,6,2,1,1
865,"AHNRH CO.","7148 UGBHWI ST.","31106","Atlanta","GA",33.844371,-84.47405,14,0,1,2
866,"FUJSD CO.","3640 QLPVAQ ST.","30396","Atlanta","GA",33.844371,-84.47405,40,2,1,16
867,"DCLFY CO.","9906 QUGXSH ST.","31107","Atlanta","GA",33.844371,-84.47405,35,3,1,11
868,"YOWRB CO.","4780 HDIGBF ST.","30339","Atlanta","GA",33.87507,-84.46615,50,1,2,1
869,"MDBDX CO.","8759 IPNLUN ST.","30388","Atlanta","GA",33.844371,-84.47405,37,8,3,6
870,"LOUQK CO.","7086 ROTVQG ST.","30315","Atlanta","GA",33.709595,-84.38365,50,2,3,28
871,"HVLJL CO.","9898 GAGUVM ST.","30339","Atlanta","GA",33.87507,-84.46615,12,4,2,15
872,"UXIOS CO.","5316 IPPJDP ST.","30301","Atlanta","GA",33.844371,-84.47405,20,2,3,11
873,"KBLQA CO.","737 CPYWON ST.","30320","Atlanta","GA",33.656824,-84.423648,28,0,1,26
874,"NKTBC CO.","7531 ZDKYFE ST.","30319","Atlanta","GA",33.872053,-84.33611,33,2,3,18
875,"JFMZA CO.","1847 QBORBB ST.","30327","Atlanta","GA",33.86427,-84.41972,20,7,2,4
876,"MXOIX CO.","7785 VLTOPO ST.","30371","Atlanta","GA",33.844371,-84.47405,49,6,1,12
877,"VSMUX CO.","2488 OLYHZU ST.","30396","Atlanta","GA",33.844371,-84.47405,40,1,3,25
878,"ALFEV CO.","6579 QWASKS ST.","31146","Atlanta","GA",33.891251,-84.07456,42,2,3,6
879,"HPASB CO.","7816 QVKNBA ST.","30370","Atlanta","GA",33.844371,-84.47405,23,2,3,13
880,"BSCKS CO.","2159 XFHDRJ ST.","31136","Atlanta","GA",33.72,-84.58,35,4,2,3
881,"PLUJG CO.","8778 XFAKLZ ST.","31120","Atlanta","GA",33.74,-84.38,48,1,1,22
882,"JUXJS CO.","9302 ICWWYK ST.","30354","Atlanta","GA",33.658834,-84.39682,50,2,1,0
883,"PZHVD CO.","3616 IDGKDK ST.","31199","Atlanta","GA",33.844371,-84.47405,13,2,2,3
884,"FRGAK CO.","5163 BOHCYO ST.","30390","Atlanta","GA",33.844371,-84.47405,7,0,1,25
885,"JFPPF CO.","7419 TRQXWG ST.","30362","Atlanta","GA",33.891251,-84.07456,9,4,2,5
886,"MCXER CO.","3230 TBDGTU ST.","30378","Atlanta","GA",33.844371,-84.47405,11,0,1,13
887,"ZKWRJ CO.","2432 HQWVFO ST.","30340","Atlanta","GA",33.899381,-84.25367,21,2,2,13
888,"KMIDE CO.","4366 DOUWGK ST.","30389","Atlanta","GA",33.844371,-84.47405,47,5,1,18
889,"RQAJY CO.","7864 CMGPXE ST.","30336","Atlanta","GA",33.744007,-84.56032,37,3,3,12
890,"CLPTA CO.","2229 LRYTVO ST.","30359","Atlanta","GA",33.891251,-84.07456,39,4,1,14
891,"GJVWI CO.","9098 HDPYBY ST.","30347","Atlanta","GA",33.844371,-84.47405,48,2,2,5
892,"FLRDM CO.","6303 VPOPFC ST.","30375","Atlanta","GA",33.844371,-84.47405,43,3,2,1
893,"UITGR CO.","9629 ZFKZCE ST.","31141","Atlanta","GA",33.891251,-84.07456,28,1,1,17
894,"FGYRN CO.","4257 RBZTUW ST.","31197","Atlanta","GA",33.844371,-84.47405,28,3,3,6
895,"FMKXT CO.","5447 NZSRQE ST.","31107","Atlanta","GA",33.844371,-84.47405,26,1,2,0
896,"JUVJU CO.","262 EGYFLE ST.","30345","Atlanta","GA",33.851736,-84.28412,33,1,2,19
897,"JZFAZ CO.","1301 BBAPJW ST.","30326","Atlanta","GA",33.849853,-84.3606,16,1,1,2
898,"TKUBJ CO.","1968 VSJTNM ST.","30361","Atlanta","GA",33.844371,-84.47405,21,1,2,17
899,"WUVIP CO.","723 DXVCXT ST.","30374","Atlanta","GA",33.844371,-84.47405,37,1,3,24
900,"XMENS CO.","5232 ZDDITV ST.","30324","Atlanta","GA",33.818304,-84.35779,6,2,2,19
901,"UNTXL CO.","5877 AYSQXK ST.","31199","Atlanta","GA",33.844371,-84.47405,35,2,3,24
902,"JKDTD CO.","7052 IBWUGE ST.","30381","Atlanta","GA",33.844371,-84.47405,16,4,1,30
903,"MBNAX CO.","395 OPPIEE ST.","30337","Atlanta","GA",33.646984,-84.4538,14,3,1,19
904,"WJOGK CO.","5666 SPHJKE ST.","30337","Atlanta","GA",33.646984,-84.4538,31,3,1,24
905,"RPWSH CO.","3461 SNRJPP ST.","30320","Atlanta","GA",33.656824,-84.423648,22,5,3,15
906,"HNUOK CO.","9973 LGXNLU ST.","30386","Atlanta","GA",33.844371,-84.47405,10,1,1,0
907,"RLMFX CO.","164 LOXWCT ST.","30323","Atlanta","GA",33.844371,-84.47405,41,1,3,3
908,"YRIBC CO.","5268 HVTVIW ST.","30311","Atlanta","GA",33.724907,-84.47131,45,2,1,3
909,"PUVXO CO.","851 QHUVLV ST.","30345","Atlanta","GA",33.851736,-84.28412,5,0,3,0
910,"RPXKG CO.","1375 THWEOX ST.","30378","Atlanta","GA",33.844371,-84.47405,8,3,3,15
911,"UKSHA CO.","2977 QBKBQF ST.","30319","Atlanta","GA",33.872053,-84.33611,12,4,3,12
912,"NLUBC CO.","7114 VPWPIS ST.","30362","Atlanta","GA",33.891251,-84.07456,14,3,1,0
913,"LKNVA CO.","3277 KOBCMX ST.","30317","Atlanta","GA",33.750005,-84.31854,31,3,2,25
914,"BVRHO CO.","9414 XQDZCN ST.","30316","Atlanta","GA",33.729506,-84.34087,7,0,1,16
915,"PWEHG CO.","8420 ECQFMT ST.","30334","Atlanta","GA",33.702657,-84.439127,8,5,2,27
916,"LBMJO CO.","8703 WOIZOR ST.","31131","Atlanta","GA",33.844371,-84.47405,35,3,3,17
917,"BINAQ CO.","2870 SVSUVC ST.","30350","Atlanta","GA",33.97285,-84.32775,38,5,1,12
918,"NEZFM CO.","8309 WNSTLQ ST.","30362","Atlanta","GA",33.891251,-84.07456,34,5,2,25
919,"YRUMR CO.","1849 JFAAOE ST.","30369","Atlanta","GA",33.844371,-84.47405,43,3,3,13
920,"CYHJN CO.","2417 OMSQCS ST.","30359","Atlanta","GA",33.891251,-84.07456,13,4,3,24
921,"LIFIF CO.","8555 PHLQLA ST.","30361","Atlanta","GA",33.844371,-84.47405,32,5,2,27
922,"BLANL CO.","4835 VAMYTU ST.","31145","Atlanta","GA",33.891251,-84.07456,7,2,3,11
923,"KWXTV CO.","438 HRHYKH ST.","30387","Atlanta","GA",33.844371,-84.47405,45,1,2,23
924,"JRQWY CO.","5408 SHWHHM ST.","31126","Atlanta","GA",33.844371,-84.47405,14,3,2,22
925,"AJMVU CO.","8034 DZJENB ST.","30351","Atlanta","GA",33.844371,-84.47405,8,5,3,17
926,"TKVEK CO.","9944 RSOQLF ST.","31146","Atlanta","GA",33.891251,-84.07456,11,2,2,14
927,"NUCNU CO.","9160 NNIFDH ST.","30390","Atlanta","GA",33.844371,-84.47405,36,4,2,11
928,"IXIOP CO.","9815 YSCLVS ST.","30375","Atlanta","GA",33.844371,-84.47405,19,2,3,10
929,"MTVYM CO.","5721 WGSPMQ ST.","30396","Atlanta","GA",33.844371,-84.47405,31,2,2,22
930,"BTFYC CO.","9376 RMVBQD ST.","30328","Atlanta","GA",33.931746,-84.37817,7,2,3,16
931,"BZVNB CO.","3111 FSHZCP ST.","30301","Atlanta","GA",33.844371,-84.47405,9,1,3,29
932,"RYVWR CO.","899 HEXBOW ST.","30327","Atlanta","GA",33.86427,-84.41972,40,3,2,21
933,"RUXNO CO.","2766 HGWRTX ST.","31141","Atlanta","GA",33.891251,-84.07456,47,3,1,13
934,"WKLKI CO.","6321 LZHWZN ST.","30330","Atlanta","GA",33.707107,-84.432127,50,2,3,9
935,"PQPTU CO.","2460 XLPWIY ST.","30345","Atlanta","GA",33.851736,-84.28412,41,1,2,1
936,"SCFDM CO.","2301 BZWHOW ST.","30308","Atlanta","GA",33.771755,-84.38065,39,1,3,18
937,"IQYCJ CO.","7642 NEXQNH ST.","30308","Atlanta","GA",33.771755,-84.38065,21,1,2,21
938,"TVKRY CO.","6576 JZWXCS ST.","30348","Atlanta","GA",33.844371,-84.47405,21,1,3,22
939,"TFLVZ CO.","8218 PMPDMR ST.","30351","Atlanta","GA",33.844371,-84.47405,21,2,2,20
940,"BCZPL CO.","2329 WVSVXN ST.","30315","Atlanta","GA",33.709595,-84.38365,19,5,3,21
941,"HYWFZ CO.","751 QNZXUD ST.","31199","Atlanta","GA",33.844371,-84.47405,22,2,1,26
942,"CIOAO CO.","6995 IMAUHV ST.","30362","Atlanta","GA",33.891251,-84.07456,16,0,2,10
943,"ZEOMD CO.","8947 SIXKAZ ST.","30336","Atlanta","GA",33.744007,-84.56032,25,2,3,27
944,"KRJPZ CO.","6476 CCCUFM ST.","31136","Atlanta","GA",33.72,-84.58,43,2,1,13
945,"FIPOZ CO.","9829 HRHPDT ST.","30384","Atlanta","GA",33.844371,-84.47405,44,2,3,28
946,"HZTWS CO.","295 VOYMES ST.","30314","Atlanta","GA",33.758056,-84.42268,30,6,1,5
947,"GKKMC CO.","2774 VELYHQ ST.","31199","Atlanta","GA",33.844371,-84.47405,34,1,2,20
948,"DOBMK CO.","4425 RURNOS ST.","30377","Atlanta","GA",33.844371,-84.47405,49,1,1,19
949,"SDRDK CO.","3787 TJQKOV ST.","30323","Atlanta","GA",33.844371,-84.47405,21,3,3,26
950,"LJKFO CO.","4615 YUHVLJ ST.","30349","Atlanta","GA",33.61541,-84.49033,18,2,2,13
951,"YDIRM CO.","5481 FQZUOG ST.","30366","Atlanta","GA",33.891251,-84.07456,31,3,2,0
952,"QMQOS CO.","5030 MEVXMY ST.","30309","Atlanta","GA",33.794055,-84.38525,5,5,3,20
953,"VYVZD CO.","1641 ODDZRH ST.","31192","Atlanta","GA",33.844371,-84.47405,14,3,3,18
954,"TVICQ CO.","7290 AUVREG ST.","30319","Atlanta","GA",33.872053,-84.33611,36,8,1,17
955,"QHYKC CO.","3997 JHGKLU ST.","30343","Atlanta","GA",33.844371,-84.47405,8,1,2,13
956,"XBUKC CO.","7706 LRGETG ST.","30321","Atlanta","GA",33.844371,-84.47405,21,5,1,28
957,"NOBJF CO.","2886 JOQMTQ ST.","30306","Atlanta","GA",33.786755,-84.35149,20,3,1,5
958,"LNDEE CO.","5595 WSNBFK ST.","30363","Atlanta","GA",33.844371,-84.47405,14,2,1,22
959,"FGNZU CO.","629 VRFCUX ST.","30384","Atlanta","GA",33.844371,-84.47405,22,4,3,10
960,"HMJCA CO.","8115 OCHVNL ST.","30374","Atlanta","GA",33.844371,-84.47405,21,2,2,0
961,"KDVGS CO.","7134 BLOSCN ST.","30318","Atlanta","GA",33.786805,-84.437,44,1,2,20
962,"ELUTT CO.","3623 FHVIMV ST.","30310","Atlanta","GA",33.727807,-84.41983,46,1,1,6
963,"JILLI CO.","4395 LELNND ST.","31145","Atlanta","GA",33.891251,-84.07456,46,3,1,26
964,"LQXFJ CO.","9981 ANFCQW ST.","30312","Atlanta","GA",33.745739,-84.3764,38,5,3,18
965,"ZNCOM CO.","5199 QCZEJQ ST.","31192","Atlanta","GA",33.844371,-84.47405,40,2,1,26
966,"LFFKR CO.","6366 OCZVUK ST.","30335","Atlanta","GA",33.752406,-84.389676,24,6,1,23
967,"YJMPE CO.","2172 IMPWEZ ST.","31199","Atlanta","GA",33.844371,-84.47405,11,2,2,25
968,"OVETF CO.","7368 QIGPLI ST.","30378","Atlanta","GA",33.844371,-84.47405,28,4,1,8
969,"LSQGO CO.","1505 UQJJUA ST.","30376","Atlanta","GA",33.844371,-84.47405,23,5,2,25
970,"WMLOR CO.","5854 SAULDE ST.","30315","Atlanta","GA",33.709595,-84.38365,41,2,1,1
971,"AZLEA CO.","4611 BXEIPY ST.","31192","Atlanta","GA",33.844371,-84.47405,35,1,1,20
972,"TXOPK CO.","528 CQLXVO ST.","30323","Atlanta","GA",33.844371,-84.47405,5,10,3,25
973,"WWTLN CO.","4246 GHDHSC ST.","30335","Atlanta","GA",33.752406,-84.389676,28,6,1,17
974,"VFXEZ CO.","2541 ZQIZRY ST.","30314","Atlanta","GA",33.758056,-84.42268,17,2,3,6
975,"KQXWP CO.","336 QUYHBQ ST.","30319","Atlanta","GA",33.872053,-84.33611,37,5,3,20
976,"TWZGI CO.","6405 GXBOKJ ST.","30347","Atlanta","GA",33.844371,-84.47405,31,7,1,8
977,"YNBJK CO.","1084 FDEXIE ST.","31139","Atlanta","GA",33.844371,-84.47405,43,2,1,3
978,"YYMLY CO.","6544 RTIXET ST.","30356","Atlanta","GA",33.891251,-84.07456,11,5,1,11
979,"TGVBS CO.","2671 BQKPWC ST.","30390","Atlanta","GA",33.844371,-84.47405,10,4,1,19
980,"HFBAC CO.","9484 MBGCWK ST.","30369","Atlanta","GA",33.844371,-84.47405,47,4,1,14
981,"MWNIH CO.","4437 QNLQHP ST.","30363","Atlanta","GA",33.844371,-84.47405,19,0,3,1
982,"FTSUW CO.","1604 XASNPX ST.","30333","Atlanta","GA",33.891251,-84.07456,49,8,2,24
983,"OMPQI CO.","4459 ZYARIT ST.","30320","Atlanta","GA",33.656824,-84.423648,48,6,3,17
984,"VZLCO CO.","1846 KVUPXR ST.","31146","Atlanta","GA",33.891251,-84.07456,21,3,1,21
985,"UDQTG CO.","9517 XUUMTT ST.","30308","Atlanta","GA",33.771755,-84.38065,40,2,2,5
986,"VHPXV CO.","5573 FTAXJP ST.","30323","Atlanta","GA",33.844371,-84.47405,33,1,1,25
987,"RHJUO CO.","6422 IGYWGC ST.","30343","Atlanta","GA",33.844371,-84.47405,29,4,3,6
988,"YTLRC CO.","6028 YWEMPU ST.","30326","Atlanta","GA",33.849853,-84.3606,5,2,1,7
989,"KURXW CO.","1739 ACESMM ST.","31119","Atlanta","GA",33.891251,-84.07456,6,2,3,3
990,"JFEZL CO.","881 LFDTLW ST.","30377","Atlanta","GA",33.844371,-84.47405,37,3,2,28
991,"DJRWT CO.","4359 ZJYGSC ST.","30303","Atlanta","GA",33.752856,-84.39013,18,2,1,6
992,"UBCCJ CO.","7533 DTUAXJ ST.","30337","Atlanta","GA",33.646984,-84.4538,29,3,3,13
993,"OEZQJ CO.","9624 BPLPCW ST.","30305","Atlanta","GA",33.830054,-84.38472,27,3,1,7
994,"KQJOF CO.","5422 VTBKSO ST.","30346","Atlanta","GA",33.926753,-84.33877,47,3,3,16
995,"UXHTR CO.","6909 LQIXTH ST.","31131","Atlanta","GA",33.844371,-84.47405,17,3,3,22
996,"ABAGE CO.","7658 QGBYHO ST.","30318","Atlanta","GA",33.786805,-84.437,34,3,1,30
997,"WYQCE CO.","3435 NFEHDA ST.","31199","Atlanta","GA",33.844371,-84.47405,28,6,3,30
998,"GCXSO CO.","6432 EYEKSM ST.","31156","Atlanta","GA",33.844371,-84.47405,15,1,1,30
999,"KRJCF CO.","2333 UEEEQF ST.","30329","Atlanta","GA",33.827554,-84.32355,31,0,2,5
1000,"RQXEP CO.","9552 OQAFMX ST.","31139","Atlanta","GA",33.844371,-84.47405,5,2,3,7
